{
  "type": "FeatureCollection",
  "features": [
    {
      "type": "Feature",
      "geometry": {
        "type": "Point",
        "coordinates": [115.8322, 39.6733, 350]
      },
      "properties": {
        "name": "上方山国家森林公园入口",
        "description": "上方山国家森林公园位于北京市房山区，以“九洞十二峰”著称，森林覆盖率高，是天然氧吧。",
        "image_url": "https://images.unsplash.com/photo-1506744038136-46273834b3fb",
        "avg_slope": "12.5°"
      }
    },
    {
      "type": "Feature",
      "geometry": {
        "type": "Point",
        "coordinates": [115.8365, 39.6768, 480]
      },
      "properties": {
        "name": "云水洞",
        "description": "华北地区著名的溶洞之一，洞内石钟乳、石笋形态各异，洞深极深，气候宜人。",
        "image_url": "https://images.unsplash.com/photo-1518709268805-4e9042af9f23",
        "avg_slope": "24.8°"
      }
    },
    {
      "type": "Feature",
      "geometry": {
        "type": "Point",
        "coordinates": [115.8301, 39.6792, 520]
      },
      "properties": {
        "name": "藏经阁 / 兜率寺",
        "description": "位于山上腹地古刹深处，环境幽静，是上方山历史文化的核心景点之一。",
        "image_url": "https://images.unsplash.com/photo-1542051841857-5f90071e7989",
        "avg_slope": "18.2°"
      }
    },
    {
      "type": "Feature",
      "geometry": {
        "type": "Point",
        "coordinates": [115.8389, 39.6715, 310]
      },
      "properties": {
        "name": "摘星坨观景台",
        "description": "俯瞰整座山谷与陡峭岩壁的最佳视野点，适合摄影与地貌观测。",
        "image_url": "https://images.unsplash.com/photo-1464822759023-fed622ff2c3b",
        "avg_slope": "31.0°"
      }
    }
  ]
}