{
  "type": "FeatureCollection",
  "features": [
    {
      "type": "Feature",
      "properties": {
        "name": "轻松路段",
        "avg_slope": 5
      },
      "geometry": {
        "type": "LineString",
        "coordinates": [
          [115.9, 39.7, 100],
          [115.91, 39.705, 105],
          [115.92, 39.71, 110]
        ]
      }
    },
    {
      "type": "Feature",
      "properties": {
        "name": "中等路段",
        "avg_slope": 15
      },
      "geometry": {
        "type": "LineString",
        "coordinates": [
          [115.92, 39.71, 110],
          [115.93, 39.715, 125],
          [115.94, 39.72, 140]
        ]
      }
    },
    {
      "type": "Feature",
      "properties": {
        "name": "困难路段",
        "avg_slope": 28
      },
      "geometry": {
        "type": "LineString",
        "coordinates": [
          [115.94, 39.72, 140],
          [115.95, 39.725, 165],
          [115.96, 39.73, 190]
        ]
      }
    }
  ]
}