{
  "type": "FeatureCollection",
  "features": [
    {
      "type": "Feature",
      "geometry": {
        "type": "Point",
        "coordinates": [115.8209, 39.6694, 308.5]
      },
      "properties": {
        "name": "台阶",
        "description": "台阶点。"
      }
    },
    {
      "type": "Feature",
      "geometry": {
        "type": "Point",
        "coordinates": [115.8213, 39.6708, 346.0]
      },
      "properties": {
        "name": "台阶",
        "description": "台阶点。"
      }
    },
    {
      "type": "Feature",
      "geometry": {
        "type": "Point",
        "coordinates": [115.8210, 39.6708, 356.5]
      },
      "properties": {
        "name": "台阶",
        "description": "台阶点。"
      }
    },
    {
      "type": "Feature",
      "geometry": {
        "type": "Point",
        "coordinates": [115.8214, 39.6713, 388.8]
      },
      "properties": {
        "name": "台阶",
        "description": "台阶点。"
      }
    },
    {
      "type": "Feature",
      "geometry": {
        "type": "Point",
        "coordinates": [115.8225, 39.6734, 394.0]
      },
      "properties": {
        "name": "台阶",
        "description": "台阶点。"
      }
    },
    {
      "type": "Feature",
      "geometry": {
        "type": "Point",
        "coordinates": [115.8227, 39.6738, 396.3]
      },
      "properties": {
        "name": "台阶",
        "description": "台阶点。"
      }
    },
    {
      "type": "Feature",
      "geometry": {
        "type": "Point",
        "coordinates": [115.8228, 39.6753, 404.8]
      },
      "properties": {
        "name": "台阶",
        "description": "台阶点。"
      }
    }
  ]
}