<?xml version="1.0" encoding="UTF-8"?>
<gpx version="1.1" creator="xihang_trajectory_cxx" xmlns="http://www.topografix.com/GPX/1/1">
  <trk>
    <name>xihang_export</name>
    <trkseg>
      <trkpt lat="30.87961955" lon="120.08999976">
        <ele>10.35</ele>
        <time>2026-07-31T16:44:10Z</time>
        <speed>-1.00</speed>
      </trkpt>
      <trkpt lat="30.87883812" lon="120.08772846">
        <ele>9.55</ele>
        <time>2026-08-01T02:11:31Z</time>
        <speed>-1.00</speed>
      </trkpt>
      <trkpt lat="30.87901366" lon="120.08693224">
        <ele>10.41</ele>
        <time>2026-08-01T02:12:04Z</time>
        <speed>10.01</speed>
      </trkpt>
      <trkpt lat="30.87939628" lon="120.08631699">
        <ele>9.22</ele>
        <time>2026-08-01T02:12:12Z</time>
        <speed>8.83</speed>
      </trkpt>
      <trkpt lat="30.87970434" lon="120.08585562">
        <ele>9.18</ele>
        <time>2026-08-01T02:12:21Z</time>
        <speed>4.74</speed>
      </trkpt>
      <trkpt lat="30.87985253" lon="120.08529087">
        <ele>7.46</ele>
        <time>2026-08-01T02:13:16Z</time>
        <speed>7.27</speed>
      </trkpt>
      <trkpt lat="30.87937237" lon="120.08471258">
        <ele>8.33</ele>
        <time>2026-08-01T02:13:24Z</time>
        <speed>11.11</speed>
      </trkpt>
      <trkpt lat="30.87830077" lon="120.08371710">
        <ele>8.70</ele>
        <time>2026-08-01T02:13:36Z</time>
        <speed>12.37</speed>
      </trkpt>
      <trkpt lat="30.87719032" lon="120.08266593">
        <ele>7.49</ele>
        <time>2026-08-01T02:13:49Z</time>
        <speed>10.02</speed>
      </trkpt>
      <trkpt lat="30.87674489" lon="120.08220938">
        <ele>8.62</ele>
        <time>2026-08-01T02:14:22Z</time>
        <speed>9.66</speed>
      </trkpt>
      <trkpt lat="30.87562021" lon="120.08117741">
        <ele>9.03</ele>
        <time>2026-08-01T02:14:34Z</time>
        <speed>12.63</speed>
      </trkpt>
      <trkpt lat="30.87472374" lon="120.08040123">
        <ele>8.40</ele>
        <time>2026-08-01T02:14:44Z</time>
        <speed>10.21</speed>
      </trkpt>
      <trkpt lat="30.87430554" lon="120.07996249">
        <ele>7.43</ele>
        <time>2026-08-01T02:14:56Z</time>
        <speed>10.21</speed>
      </trkpt>
      <trkpt lat="30.87388909" lon="120.07956704">
        <ele>7.10</ele>
        <time>2026-08-01T02:15:02Z</time>
        <speed>8.48</speed>
      </trkpt>
      <trkpt lat="30.87322705" lon="120.07896789">
        <ele>6.30</ele>
        <time>2026-08-01T02:15:12Z</time>
        <speed>10.35</speed>
      </trkpt>
      <trkpt lat="30.87281305" lon="120.07859166">
        <ele>5.42</ele>
        <time>2026-08-01T02:15:19Z</time>
        <speed>7.41</speed>
      </trkpt>
      <trkpt lat="30.87223073" lon="120.07801204">
        <ele>6.07</ele>
        <time>2026-08-01T02:15:27Z</time>
        <speed>11.74</speed>
      </trkpt>
      <trkpt lat="30.87157997" lon="120.07738605">
        <ele>6.28</ele>
        <time>2026-08-01T02:15:35Z</time>
        <speed>10.38</speed>
      </trkpt>
      <trkpt lat="30.87114762" lon="120.07701892">
        <ele>6.46</ele>
        <time>2026-08-01T02:15:43Z</time>
        <speed>6.73</speed>
      </trkpt>
      <trkpt lat="30.87070659" lon="120.07662413">
        <ele>5.86</ele>
        <time>2026-08-01T02:15:51Z</time>
        <speed>8.08</speed>
      </trkpt>
      <trkpt lat="30.87077373" lon="120.07585249">
        <ele>6.25</ele>
        <time>2026-08-01T02:16:02Z</time>
        <speed>10.33</speed>
      </trkpt>
      <trkpt lat="30.87155000" lon="120.07449780">
        <ele>6.50</ele>
        <time>2026-08-01T02:16:13Z</time>
        <speed>15.43</speed>
      </trkpt>
      <trkpt lat="30.87227823" lon="120.07331082">
        <ele>6.17</ele>
        <time>2026-08-01T02:16:23Z</time>
        <speed>13.31</speed>
      </trkpt>
      <trkpt lat="30.87323863" lon="120.07174933">
        <ele>5.14</ele>
        <time>2026-08-01T02:16:37Z</time>
        <speed>12.65</speed>
      </trkpt>
      <trkpt lat="30.87365971" lon="120.07103401">
        <ele>6.19</ele>
        <time>2026-08-01T02:16:44Z</time>
        <speed>11.00</speed>
      </trkpt>
      <trkpt lat="30.87421836" lon="120.07009364">
        <ele>7.46</ele>
        <time>2026-08-01T02:16:55Z</time>
        <speed>10.07</speed>
      </trkpt>
      <trkpt lat="30.87451135" lon="120.06960248">
        <ele>7.97</ele>
        <time>2026-08-01T02:17:03Z</time>
        <speed>5.48</speed>
      </trkpt>
      <trkpt lat="30.87494754" lon="120.06910287">
        <ele>8.76</ele>
        <time>2026-08-01T02:17:49Z</time>
        <speed>8.87</speed>
      </trkpt>
      <trkpt lat="30.87557492" lon="120.06775157">
        <ele>9.26</ele>
        <time>2026-08-01T02:18:00Z</time>
        <speed>13.97</speed>
      </trkpt>
      <trkpt lat="30.87600450" lon="120.06562879">
        <ele>6.86</ele>
        <time>2026-08-01T02:18:14Z</time>
        <speed>15.11</speed>
      </trkpt>
      <trkpt lat="30.87679785" lon="120.06391754">
        <ele>5.89</ele>
        <time>2026-08-01T02:18:25Z</time>
        <speed>13.04</speed>
      </trkpt>
      <trkpt lat="30.87691837" lon="120.06327309">
        <ele>7.06</ele>
        <time>2026-08-01T02:18:49Z</time>
        <speed>8.97</speed>
      </trkpt>
      <trkpt lat="30.87704188" lon="120.06208702">
        <ele>7.17</ele>
        <time>2026-08-01T02:18:58Z</time>
        <speed>12.91</speed>
      </trkpt>
      <trkpt lat="30.87736053" lon="120.06006735">
        <ele>6.09</ele>
        <time>2026-08-01T02:19:12Z</time>
        <speed>13.73</speed>
      </trkpt>
      <trkpt lat="30.87764679" lon="120.05799363">
        <ele>5.67</ele>
        <time>2026-08-01T02:19:26Z</time>
        <speed>12.97</speed>
      </trkpt>
      <trkpt lat="30.87791490" lon="120.05614948">
        <ele>5.48</ele>
        <time>2026-08-01T02:19:40Z</time>
        <speed>13.49</speed>
      </trkpt>
      <trkpt lat="30.87815081" lon="120.05411342">
        <ele>7.20</ele>
        <time>2026-08-01T02:19:54Z</time>
        <speed>14.77</speed>
      </trkpt>
      <trkpt lat="30.87844190" lon="120.05145668">
        <ele>5.79</ele>
        <time>2026-08-01T02:20:09Z</time>
        <speed>16.52</speed>
      </trkpt>
      <trkpt lat="30.87892432" lon="120.04855544">
        <ele>7.16</ele>
        <time>2026-08-01T02:20:27Z</time>
        <speed>15.67</speed>
      </trkpt>
      <trkpt lat="30.87851021" lon="120.04626803">
        <ele>11.95</ele>
        <time>2026-08-01T02:20:43Z</time>
        <speed>14.07</speed>
      </trkpt>
      <trkpt lat="30.87798403" lon="120.04393266">
        <ele>12.53</ele>
        <time>2026-08-01T02:20:58Z</time>
        <speed>16.69</speed>
      </trkpt>
      <trkpt lat="30.87797337" lon="120.04227090">
        <ele>3.10</ele>
        <time>2026-08-01T02:21:08Z</time>
        <speed>14.47</speed>
      </trkpt>
      <trkpt lat="30.87790392" lon="120.04137328">
        <ele>2.57</ele>
        <time>2026-08-01T02:21:15Z</time>
        <speed>10.69</speed>
      </trkpt>
      <trkpt lat="30.87771434" lon="120.04014512">
        <ele>2.92</ele>
        <time>2026-08-01T02:21:26Z</time>
        <speed>11.89</speed>
      </trkpt>
      <trkpt lat="30.87719153" lon="120.03847090">
        <ele>4.67</ele>
        <time>2026-08-01T02:21:39Z</time>
        <speed>14.98</speed>
      </trkpt>
      <trkpt lat="30.87620633" lon="120.03637684">
        <ele>7.06</ele>
        <time>2026-08-01T02:21:54Z</time>
        <speed>14.76</speed>
      </trkpt>
      <trkpt lat="30.87569596" lon="120.03529232">
        <ele>6.87</ele>
        <time>2026-08-01T02:22:03Z</time>
        <speed>11.47</speed>
      </trkpt>
      <trkpt lat="30.87491862" lon="120.03361676">
        <ele>5.15</ele>
        <time>2026-08-01T02:22:17Z</time>
        <speed>14.79</speed>
      </trkpt>
      <trkpt lat="30.87431948" lon="120.03223384">
        <ele>3.55</ele>
        <time>2026-08-01T02:22:27Z</time>
        <speed>12.49</speed>
      </trkpt>
      <trkpt lat="30.87411704" lon="120.03160107">
        <ele>5.04</ele>
        <time>2026-08-01T02:23:09Z</time>
        <speed>5.47</speed>
      </trkpt>
      <trkpt lat="30.87396382" lon="120.03105297">
        <ele>4.85</ele>
        <time>2026-08-01T02:23:15Z</time>
        <speed>10.79</speed>
      </trkpt>
      <trkpt lat="30.87369593" lon="120.02956077">
        <ele>4.61</ele>
        <time>2026-08-01T02:23:26Z</time>
        <speed>13.91</speed>
      </trkpt>
      <trkpt lat="30.87365051" lon="120.02726241">
        <ele>5.63</ele>
        <time>2026-08-01T02:23:40Z</time>
        <speed>16.25</speed>
      </trkpt>
      <trkpt lat="30.87364717" lon="120.02484332">
        <ele>5.06</ele>
        <time>2026-08-01T02:23:55Z</time>
        <speed>12.99</speed>
      </trkpt>
      <trkpt lat="30.87360953" lon="120.02278556">
        <ele>5.43</ele>
        <time>2026-08-01T02:24:09Z</time>
        <speed>14.92</speed>
      </trkpt>
      <trkpt lat="30.87391352" lon="120.02037685">
        <ele>3.65</ele>
        <time>2026-08-01T02:24:24Z</time>
        <speed>15.67</speed>
      </trkpt>
      <trkpt lat="30.87409425" lon="120.01775947">
        <ele>4.48</ele>
        <time>2026-08-01T02:24:40Z</time>
        <speed>14.63</speed>
      </trkpt>
      <trkpt lat="30.87406568" lon="120.01573917">
        <ele>4.46</ele>
        <time>2026-08-01T02:24:53Z</time>
        <speed>11.85</speed>
      </trkpt>
      <trkpt lat="30.87405908" lon="120.01498367">
        <ele>3.15</ele>
        <time>2026-08-01T02:25:02Z</time>
        <speed>4.30</speed>
      </trkpt>
      <trkpt lat="30.87405706" lon="120.01425515">
        <ele>4.05</ele>
        <time>2026-08-01T02:25:31Z</time>
        <speed>10.07</speed>
      </trkpt>
      <trkpt lat="30.87406530" lon="120.01242469">
        <ele>4.54</ele>
        <time>2026-08-01T02:25:43Z</time>
        <speed>16.89</speed>
      </trkpt>
      <trkpt lat="30.87429302" lon="120.00922355">
        <ele>7.88</ele>
        <time>2026-08-01T02:26:00Z</time>
        <speed>18.26</speed>
      </trkpt>
      <trkpt lat="30.87468753" lon="120.00651352">
        <ele>16.92</ele>
        <time>2026-08-01T02:26:15Z</time>
        <speed>15.10</speed>
      </trkpt>
      <trkpt lat="30.87489291" lon="120.00550010">
        <ele>18.50</ele>
        <time>2026-08-01T02:26:23Z</time>
        <speed>10.19</speed>
      </trkpt>
      <trkpt lat="30.87501097" lon="120.00489853">
        <ele>15.43</ele>
        <time>2026-08-01T02:26:33Z</time>
        <speed>0.60</speed>
      </trkpt>
      <trkpt lat="30.87513490" lon="120.00425833">
        <ele>11.64</ele>
        <time>2026-08-01T02:27:02Z</time>
        <speed>10.20</speed>
      </trkpt>
      <trkpt lat="30.87540989" lon="120.00255354">
        <ele>10.81</ele>
        <time>2026-08-01T02:27:14Z</time>
        <speed>15.45</speed>
      </trkpt>
      <trkpt lat="30.87513054" lon="119.99989474">
        <ele>11.14</ele>
        <time>2026-08-01T02:27:30Z</time>
        <speed>16.69</speed>
      </trkpt>
      <trkpt lat="30.87412692" lon="119.99681939">
        <ele>12.83</ele>
        <time>2026-08-01T02:27:49Z</time>
        <speed>16.85</speed>
      </trkpt>
      <trkpt lat="30.87340664" lon="119.99392055">
        <ele>11.84</ele>
        <time>2026-08-01T02:28:06Z</time>
        <speed>17.80</speed>
      </trkpt>
      <trkpt lat="30.87316227" lon="119.99051795">
        <ele>8.85</ele>
        <time>2026-08-01T02:28:25Z</time>
        <speed>16.98</speed>
      </trkpt>
      <trkpt lat="30.87324744" lon="119.98902998">
        <ele>6.67</ele>
        <time>2026-08-01T02:28:33Z</time>
        <speed>12.97</speed>
      </trkpt>
      <trkpt lat="30.87333354" lon="119.98826786">
        <ele>7.77</ele>
        <time>2026-08-01T02:29:04Z</time>
        <speed>7.50</speed>
      </trkpt>
      <trkpt lat="30.87347499" lon="119.98737845">
        <ele>10.02</ele>
        <time>2026-08-01T02:29:12Z</time>
        <speed>12.83</speed>
      </trkpt>
      <trkpt lat="30.87378940" lon="119.98534116">
        <ele>15.95</ele>
        <time>2026-08-01T02:29:25Z</time>
        <speed>15.91</speed>
      </trkpt>
      <trkpt lat="30.87422479" lon="119.98257212">
        <ele>6.17</ele>
        <time>2026-08-01T02:29:41Z</time>
        <speed>16.25</speed>
      </trkpt>
      <trkpt lat="30.87441142" lon="119.98142246">
        <ele>3.96</ele>
        <time>2026-08-01T02:29:49Z</time>
        <speed>11.61</speed>
      </trkpt>
      <trkpt lat="30.87453158" lon="119.98068607">
        <ele>3.56</ele>
        <time>2026-08-01T02:29:57Z</time>
        <speed>8.41</speed>
      </trkpt>
      <trkpt lat="30.87474118" lon="119.97932036">
        <ele>4.78</ele>
        <time>2026-08-01T02:30:07Z</time>
        <speed>16.38</speed>
      </trkpt>
      <trkpt lat="30.87449525" lon="119.97598571">
        <ele>5.34</ele>
        <time>2026-08-01T02:30:25Z</time>
        <speed>18.80</speed>
      </trkpt>
      <trkpt lat="30.87315393" lon="119.97359216">
        <ele>6.52</ele>
        <time>2026-08-01T02:30:40Z</time>
        <speed>16.56</speed>
      </trkpt>
      <trkpt lat="30.87146813" lon="119.97129128">
        <ele>4.61</ele>
        <time>2026-08-01T02:30:58Z</time>
        <speed>14.80</speed>
      </trkpt>
      <trkpt lat="30.87105664" lon="119.97092017">
        <ele>3.36</ele>
        <time>2026-08-01T02:31:06Z</time>
        <speed>6.15</speed>
      </trkpt>
      <trkpt lat="30.87059874" lon="119.97123746">
        <ele>4.30</ele>
        <time>2026-08-01T02:31:14Z</time>
        <speed>7.63</speed>
      </trkpt>
      <trkpt lat="30.86996776" lon="119.97090248">
        <ele>4.85</ele>
        <time>2026-08-01T02:31:23Z</time>
        <speed>10.60</speed>
      </trkpt>
      <trkpt lat="30.87018120" lon="119.96950281">
        <ele>5.65</ele>
        <time>2026-08-01T02:31:34Z</time>
        <speed>12.91</speed>
      </trkpt>
      <trkpt lat="30.87012792" lon="119.96856259">
        <ele>5.57</ele>
        <time>2026-08-01T02:31:42Z</time>
        <speed>9.50</speed>
      </trkpt>
      <trkpt lat="30.86985683" lon="119.96810532">
        <ele>5.13</ele>
        <time>2026-08-01T02:33:38Z</time>
        <speed>6.50</speed>
      </trkpt>
      <trkpt lat="30.86931361" lon="119.96735263">
        <ele>5.08</ele>
        <time>2026-08-01T02:33:47Z</time>
        <speed>11.87</speed>
      </trkpt>
      <trkpt lat="30.86836282" lon="119.96586582">
        <ele>6.43</ele>
        <time>2026-08-01T02:34:01Z</time>
        <speed>13.18</speed>
      </trkpt>
      <trkpt lat="30.86698919" lon="119.96462348">
        <ele>8.04</ele>
        <time>2026-08-01T02:34:16Z</time>
        <speed>13.28</speed>
      </trkpt>
      <trkpt lat="30.86620405" lon="119.96275671">
        <ele>6.02</ele>
        <time>2026-08-01T02:34:30Z</time>
        <speed>14.93</speed>
      </trkpt>
      <trkpt lat="30.86593390" lon="119.96172868">
        <ele>4.02</ele>
        <time>2026-08-01T02:34:38Z</time>
        <speed>12.20</speed>
      </trkpt>
      <trkpt lat="30.86547055" lon="119.95977397">
        <ele>6.52</ele>
        <time>2026-08-01T02:34:51Z</time>
        <speed>14.06</speed>
      </trkpt>
      <trkpt lat="30.86514704" lon="119.95736115">
        <ele>6.24</ele>
        <time>2026-08-01T02:35:07Z</time>
        <speed>15.08</speed>
      </trkpt>
      <trkpt lat="30.86456906" lon="119.95502783">
        <ele>5.19</ele>
        <time>2026-08-01T02:35:23Z</time>
        <speed>14.99</speed>
      </trkpt>
      <trkpt lat="30.86414046" lon="119.95379778">
        <ele>5.21</ele>
        <time>2026-08-01T02:35:32Z</time>
        <speed>13.42</speed>
      </trkpt>
      <trkpt lat="30.86382836" lon="119.95316180">
        <ele>3.86</ele>
        <time>2026-08-01T02:35:39Z</time>
        <speed>11.00</speed>
      </trkpt>
      <trkpt lat="30.86241951" lon="119.95335582">
        <ele>3.76</ele>
        <time>2026-08-01T02:35:52Z</time>
        <speed>14.74</speed>
      </trkpt>
      <trkpt lat="30.86044768" lon="119.95452146">
        <ele>5.09</ele>
        <time>2026-08-01T02:36:08Z</time>
        <speed>16.00</speed>
      </trkpt>
      <trkpt lat="30.85944592" lon="119.95491276">
        <ele>6.03</ele>
        <time>2026-08-01T02:36:16Z</time>
        <speed>12.61</speed>
      </trkpt>
      <trkpt lat="30.85893222" lon="119.95516420">
        <ele>5.93</ele>
        <time>2026-08-01T02:36:22Z</time>
        <speed>8.05</speed>
      </trkpt>
      <trkpt lat="30.85856475" lon="119.95475053">
        <ele>4.81</ele>
        <time>2026-08-01T02:36:32Z</time>
        <speed>4.57</speed>
      </trkpt>
      <trkpt lat="30.85824924" lon="119.95431905">
        <ele>5.48</ele>
        <time>2026-08-01T02:37:09Z</time>
        <speed>5.90</speed>
      </trkpt>
      <trkpt lat="30.85754477" lon="119.95452471">
        <ele>4.42</ele>
        <time>2026-08-01T02:37:18Z</time>
        <speed>11.51</speed>
      </trkpt>
      <trkpt lat="30.85636741" lon="119.95515954">
        <ele>5.99</ele>
        <time>2026-08-01T02:37:30Z</time>
        <speed>14.56</speed>
      </trkpt>
      <trkpt lat="30.85433417" lon="119.95647189">
        <ele>13.89</ele>
        <time>2026-08-01T02:37:46Z</time>
        <speed>16.70</speed>
      </trkpt>
      <trkpt lat="30.85189389" lon="119.95808276">
        <ele>18.84</ele>
        <time>2026-08-01T02:38:04Z</time>
        <speed>17.74</speed>
      </trkpt>
      <trkpt lat="30.84986832" lon="119.95941418">
        <ele>7.16</ele>
        <time>2026-08-01T02:38:19Z</time>
        <speed>14.80</speed>
      </trkpt>
      <trkpt lat="30.84930978" lon="119.95974676">
        <ele>5.90</ele>
        <time>2026-08-01T02:38:26Z</time>
        <speed>5.88</speed>
      </trkpt>
      <trkpt lat="30.84947573" lon="119.95919113">
        <ele>4.11</ele>
        <time>2026-08-01T02:38:36Z</time>
        <speed>8.59</speed>
      </trkpt>
      <trkpt lat="30.84975246" lon="119.95857860">
        <ele>3.60</ele>
        <time>2026-08-01T02:38:44Z</time>
        <speed>5.40</speed>
      </trkpt>
      <trkpt lat="30.84999655" lon="119.95811311">
        <ele>4.47</ele>
        <time>2026-08-01T02:38:51Z</time>
        <speed>8.24</speed>
      </trkpt>
      <trkpt lat="30.85030834" lon="119.95741922">
        <ele>5.65</ele>
        <time>2026-08-01T02:39:00Z</time>
        <speed>8.54</speed>
      </trkpt>
      <trkpt lat="30.85056155" lon="119.95675024">
        <ele>4.70</ele>
        <time>2026-08-01T02:39:08Z</time>
        <speed>4.40</speed>
      </trkpt>
      <trkpt lat="30.85004433" lon="119.95646895">
        <ele>4.75</ele>
        <time>2026-08-01T02:39:19Z</time>
        <speed>8.52</speed>
      </trkpt>
      <trkpt lat="30.84938749" lon="119.95613468">
        <ele>4.77</ele>
        <time>2026-08-01T02:39:28Z</time>
        <speed>10.95</speed>
      </trkpt>
      <trkpt lat="30.84832137" lon="119.95559161">
        <ele>4.01</ele>
        <time>2026-08-01T02:39:40Z</time>
        <speed>9.26</speed>
      </trkpt>
      <trkpt lat="30.84777235" lon="119.95534008">
        <ele>5.14</ele>
        <time>2026-08-01T02:39:49Z</time>
        <speed>5.47</speed>
      </trkpt>
      <trkpt lat="30.84758602" lon="119.95481272">
        <ele>4.44</ele>
        <time>2026-08-01T02:40:01Z</time>
        <speed>7.17</speed>
      </trkpt>
      <trkpt lat="30.84746080" lon="119.95405626">
        <ele>5.62</ele>
        <time>2026-08-01T02:40:10Z</time>
        <speed>8.20</speed>
      </trkpt>
      <trkpt lat="30.84729152" lon="119.95349640">
        <ele>5.73</ele>
        <time>2026-08-01T02:40:26Z</time>
        <speed>1.95</speed>
      </trkpt>
      <trkpt lat="30.84709198" lon="119.95299388">
        <ele>4.70</ele>
        <time>2026-08-01T02:43:27Z</time>
        <speed>1.06</speed>
      </trkpt>
    </trkseg>
  </trk>
</gpx>
