<?xml version="1.0" encoding="UTF-8"?>
<gpx version="1.1" creator="xihang_trajectory_cxx" xmlns="http://www.topografix.com/GPX/1/1">
  <trk>
    <name>xihang_export</name>
    <trkseg>
      <trkpt lat="39.66373738" lon="115.81591054">
        <ele>176.82</ele>
        <time>2026-09-01T01:27:40Z</time>
        <speed>-1.00</speed>
      </trkpt>
      <trkpt lat="39.66384028" lon="115.81611309">
        <ele>178.66</ele>
        <time>2026-09-01T01:28:28Z</time>
        <speed>0.27</speed>
      </trkpt>
      <trkpt lat="39.66388399" lon="115.81605238">
        <ele>176.74</ele>
        <time>2026-09-01T01:29:37Z</time>
        <speed>0.13</speed>
      </trkpt>
      <trkpt lat="39.66386757" lon="115.81664550">
        <ele>184.74</ele>
        <time>2026-09-01T01:39:39Z</time>
        <speed>0.44</speed>
      </trkpt>
      <trkpt lat="39.66396494" lon="115.81672173">
        <ele>186.72</ele>
        <time>2026-09-01T01:49:40Z</time>
      </trkpt>
      <trkpt lat="39.66439843" lon="115.81699614">
        <ele>195.30</ele>
        <time>2026-09-01T01:57:40Z</time>
        <speed>0.59</speed>
      </trkpt>
      <trkpt lat="39.66475217" lon="115.81714239">
        <ele>208.15</ele>
        <time>2026-09-01T01:58:49Z</time>
        <speed>0.72</speed>
      </trkpt>
      <trkpt lat="39.66470901" lon="115.81721240">
        <ele>208.10</ele>
        <time>2026-09-01T01:59:25Z</time>
      </trkpt>
      <trkpt lat="39.66464939" lon="115.81715714">
        <ele>207.18</ele>
        <time>2026-09-01T01:59:40Z</time>
        <speed>0.11</speed>
      </trkpt>
      <trkpt lat="39.66468195" lon="115.81724559">
        <ele>205.07</ele>
        <time>2026-09-01T02:02:02Z</time>
        <speed>0.08</speed>
      </trkpt>
      <trkpt lat="39.66476109" lon="115.81727746">
        <ele>208.17</ele>
        <time>2026-09-01T02:04:27Z</time>
        <speed>0.67</speed>
      </trkpt>
      <trkpt lat="39.66477075" lon="115.81718442">
        <ele>206.42</ele>
        <time>2026-09-01T02:04:44Z</time>
        <speed>0.23</speed>
      </trkpt>
      <trkpt lat="39.66481568" lon="115.81724839">
        <ele>211.31</ele>
        <time>2026-09-01T02:07:08Z</time>
      </trkpt>
      <trkpt lat="39.66486869" lon="115.81730299">
        <ele>213.02</ele>
        <time>2026-09-01T02:08:17Z</time>
        <speed>0.87</speed>
      </trkpt>
      <trkpt lat="39.66494379" lon="115.81733528">
        <ele>213.88</ele>
        <time>2026-09-01T02:08:37Z</time>
        <speed>1.32</speed>
      </trkpt>
      <trkpt lat="39.66504290" lon="115.81732256">
        <ele>215.46</ele>
        <time>2026-09-01T02:08:47Z</time>
        <speed>0.35</speed>
      </trkpt>
      <trkpt lat="39.66511403" lon="115.81735173">
        <ele>218.03</ele>
        <time>2026-09-01T02:09:44Z</time>
        <speed>0.93</speed>
      </trkpt>
      <trkpt lat="39.66516497" lon="115.81741091">
        <ele>220.92</ele>
        <time>2026-09-01T02:09:52Z</time>
        <speed>0.66</speed>
      </trkpt>
      <trkpt lat="39.66513043" lon="115.81734195">
        <ele>220.54</ele>
        <time>2026-09-01T02:10:09Z</time>
        <speed>0.13</speed>
      </trkpt>
      <trkpt lat="39.66509736" lon="115.81742155">
        <ele>220.80</ele>
        <time>2026-09-01T02:11:29Z</time>
        <speed>0.04</speed>
      </trkpt>
      <trkpt lat="39.66520573" lon="115.81746349">
        <ele>222.93</ele>
        <time>2026-09-01T02:11:58Z</time>
        <speed>0.61</speed>
      </trkpt>
      <trkpt lat="39.66522134" lon="115.81754887">
        <ele>222.88</ele>
        <time>2026-09-01T02:12:18Z</time>
        <speed>0.35</speed>
      </trkpt>
      <trkpt lat="39.66523754" lon="115.81745557">
        <ele>224.50</ele>
        <time>2026-09-01T02:13:27Z</time>
        <speed>0.60</speed>
      </trkpt>
      <trkpt lat="39.66530452" lon="115.81750240">
        <ele>221.64</ele>
        <time>2026-09-01T02:14:21Z</time>
        <speed>0.28</speed>
      </trkpt>
      <trkpt lat="39.66533329" lon="115.81758555">
        <ele>224.37</ele>
        <time>2026-09-01T02:14:57Z</time>
        <speed>0.19</speed>
      </trkpt>
      <trkpt lat="39.66537758" lon="115.81765637">
        <ele>228.57</ele>
        <time>2026-09-01T02:15:49Z</time>
        <speed>0.47</speed>
      </trkpt>
      <trkpt lat="39.66538377" lon="115.81775289">
        <ele>227.51</ele>
        <time>2026-09-01T02:16:03Z</time>
        <speed>0.93</speed>
      </trkpt>
      <trkpt lat="39.66544212" lon="115.81770213">
        <ele>227.17</ele>
        <time>2026-09-01T02:16:22Z</time>
        <speed>0.28</speed>
      </trkpt>
      <trkpt lat="39.66550964" lon="115.81774032">
        <ele>228.10</ele>
        <time>2026-09-01T02:16:30Z</time>
        <speed>0.76</speed>
      </trkpt>
      <trkpt lat="39.66556114" lon="115.81779671">
        <ele>230.13</ele>
        <time>2026-09-01T02:16:45Z</time>
        <speed>0.91</speed>
      </trkpt>
      <trkpt lat="39.66560002" lon="115.81771651">
        <ele>230.87</ele>
        <time>2026-09-01T02:16:54Z</time>
        <speed>0.39</speed>
      </trkpt>
      <trkpt lat="39.66562580" lon="115.81779512">
        <ele>232.56</ele>
        <time>2026-09-01T02:17:22Z</time>
        <speed>0.69</speed>
      </trkpt>
      <trkpt lat="39.66568360" lon="115.81784037">
        <ele>231.59</ele>
        <time>2026-09-01T02:18:36Z</time>
        <speed>0.75</speed>
      </trkpt>
      <trkpt lat="39.66573480" lon="115.81792487">
        <ele>232.20</ele>
        <time>2026-09-01T02:19:30Z</time>
        <speed>0.31</speed>
      </trkpt>
      <trkpt lat="39.66578574" lon="115.81797454">
        <ele>232.13</ele>
        <time>2026-09-01T02:19:35Z</time>
        <speed>1.92</speed>
      </trkpt>
      <trkpt lat="39.66579855" lon="115.81788438">
        <ele>231.01</ele>
        <time>2026-09-01T02:19:59Z</time>
        <speed>0.40</speed>
      </trkpt>
      <trkpt lat="39.66578795" lon="115.81798775">
        <ele>231.43</ele>
        <time>2026-09-01T02:20:24Z</time>
        <speed>0.13</speed>
      </trkpt>
      <trkpt lat="39.66586231" lon="115.81801955">
        <ele>231.16</ele>
        <time>2026-09-01T02:20:41Z</time>
        <speed>0.52</speed>
      </trkpt>
      <trkpt lat="39.66591239" lon="115.81808068">
        <ele>230.95</ele>
        <time>2026-09-01T02:21:07Z</time>
        <speed>0.97</speed>
      </trkpt>
      <trkpt lat="39.66596944" lon="115.81818070">
        <ele>231.27</ele>
        <time>2026-09-01T02:21:17Z</time>
        <speed>1.25</speed>
      </trkpt>
      <trkpt lat="39.66592937" lon="115.81811877">
        <ele>231.10</ele>
        <time>2026-09-01T02:21:32Z</time>
        <speed>0.62</speed>
      </trkpt>
      <trkpt lat="39.66598968" lon="115.81818314">
        <ele>231.33</ele>
        <time>2026-09-01T02:21:41Z</time>
        <speed>0.25</speed>
      </trkpt>
      <trkpt lat="39.66603949" lon="115.81823924">
        <ele>231.77</ele>
        <time>2026-09-01T02:21:45Z</time>
        <speed>0.45</speed>
      </trkpt>
      <trkpt lat="39.66614299" lon="115.81823971">
        <ele>229.33</ele>
        <time>2026-09-01T02:21:55Z</time>
        <speed>0.26</speed>
      </trkpt>
      <trkpt lat="39.66622407" lon="115.81826149">
        <ele>228.69</ele>
        <time>2026-09-01T02:22:23Z</time>
        <speed>0.25</speed>
      </trkpt>
      <trkpt lat="39.66627613" lon="115.81831020">
        <ele>229.00</ele>
        <time>2026-09-01T02:22:37Z</time>
        <speed>0.99</speed>
      </trkpt>
      <trkpt lat="39.66637486" lon="115.81829570">
        <ele>228.20</ele>
        <time>2026-09-01T02:24:07Z</time>
        <speed>0.22</speed>
      </trkpt>
      <trkpt lat="39.66648945" lon="115.81826606">
        <ele>228.88</ele>
        <time>2026-09-01T02:24:21Z</time>
        <speed>1.13</speed>
      </trkpt>
      <trkpt lat="39.66659006" lon="115.81825481">
        <ele>229.08</ele>
        <time>2026-09-01T02:24:40Z</time>
        <speed>0.64</speed>
      </trkpt>
      <trkpt lat="39.66665904" lon="115.81828667">
        <ele>229.82</ele>
        <time>2026-09-01T02:24:57Z</time>
        <speed>0.24</speed>
      </trkpt>
      <trkpt lat="39.66668709" lon="115.81836825">
        <ele>229.01</ele>
        <time>2026-09-01T02:25:06Z</time>
        <speed>0.27</speed>
      </trkpt>
      <trkpt lat="39.66676394" lon="115.81834429">
        <ele>229.26</ele>
        <time>2026-09-01T02:25:19Z</time>
        <speed>0.05</speed>
      </trkpt>
      <trkpt lat="39.66676977" lon="115.81824364">
        <ele>229.77</ele>
        <time>2026-09-01T02:25:35Z</time>
        <speed>1.30</speed>
      </trkpt>
      <trkpt lat="39.66680767" lon="115.81835085">
        <ele>230.02</ele>
        <time>2026-09-01T02:25:39Z</time>
        <speed>2.40</speed>
      </trkpt>
      <trkpt lat="39.66688589" lon="115.81830840">
        <ele>231.49</ele>
        <time>2026-09-01T02:26:00Z</time>
        <speed>0.48</speed>
      </trkpt>
      <trkpt lat="39.66696711" lon="115.81828742">
        <ele>232.18</ele>
        <time>2026-09-01T02:26:12Z</time>
        <speed>0.78</speed>
      </trkpt>
      <trkpt lat="39.66702732" lon="115.81824120">
        <ele>232.80</ele>
        <time>2026-09-01T02:26:20Z</time>
        <speed>0.32</speed>
      </trkpt>
      <trkpt lat="39.66711700" lon="115.81829051">
        <ele>235.16</ele>
        <time>2026-09-01T02:26:32Z</time>
        <speed>1.22</speed>
      </trkpt>
      <trkpt lat="39.66714779" lon="115.81840336">
        <ele>241.58</ele>
        <time>2026-09-01T02:26:41Z</time>
        <speed>1.11</speed>
      </trkpt>
      <trkpt lat="39.66715858" lon="115.81849535">
        <ele>243.34</ele>
        <time>2026-09-01T02:26:51Z</time>
        <speed>0.60</speed>
      </trkpt>
      <trkpt lat="39.66715776" lon="115.81839282">
        <ele>243.87</ele>
        <time>2026-09-01T02:27:05Z</time>
        <speed>0.14</speed>
      </trkpt>
      <trkpt lat="39.66715044" lon="115.81848739">
        <ele>240.33</ele>
        <time>2026-09-01T02:27:47Z</time>
        <speed>0.07</speed>
      </trkpt>
      <trkpt lat="39.66708664" lon="115.81853173">
        <ele>239.96</ele>
        <time>2026-09-01T02:28:02Z</time>
        <speed>0.65</speed>
      </trkpt>
      <trkpt lat="39.66706947" lon="115.81863556">
        <ele>239.70</ele>
        <time>2026-09-01T02:29:06Z</time>
        <speed>0.65</speed>
      </trkpt>
      <trkpt lat="39.66706456" lon="115.81874247">
        <ele>240.24</ele>
        <time>2026-09-01T02:29:16Z</time>
        <speed>0.58</speed>
      </trkpt>
      <trkpt lat="39.66705059" lon="115.81885851">
        <ele>243.27</ele>
        <time>2026-09-01T02:29:26Z</time>
        <speed>0.83</speed>
      </trkpt>
      <trkpt lat="39.66702471" lon="115.81895319">
        <ele>244.80</ele>
        <time>2026-09-01T02:29:34Z</time>
        <speed>0.63</speed>
      </trkpt>
      <trkpt lat="39.66701008" lon="115.81906044">
        <ele>247.33</ele>
        <time>2026-09-01T02:29:46Z</time>
        <speed>0.67</speed>
      </trkpt>
      <trkpt lat="39.66701812" lon="115.81916028">
        <ele>249.16</ele>
        <time>2026-09-01T02:30:01Z</time>
        <speed>0.56</speed>
      </trkpt>
      <trkpt lat="39.66701900" lon="115.81926130">
        <ele>252.84</ele>
        <time>2026-09-01T02:30:41Z</time>
        <speed>0.60</speed>
      </trkpt>
      <trkpt lat="39.66707337" lon="115.81932291">
        <ele>253.91</ele>
        <time>2026-09-01T02:30:50Z</time>
        <speed>0.22</speed>
      </trkpt>
      <trkpt lat="39.66709758" lon="115.81939995">
        <ele>254.70</ele>
        <time>2026-09-01T02:30:56Z</time>
        <speed>0.89</speed>
      </trkpt>
      <trkpt lat="39.66717461" lon="115.81942440">
        <ele>255.56</ele>
        <time>2026-09-01T02:31:06Z</time>
        <speed>0.70</speed>
      </trkpt>
      <trkpt lat="39.66725540" lon="115.81945276">
        <ele>256.99</ele>
        <time>2026-09-01T02:31:18Z</time>
        <speed>0.85</speed>
      </trkpt>
      <trkpt lat="39.66729861" lon="115.81951993">
        <ele>257.92</ele>
        <time>2026-09-01T02:31:48Z</time>
        <speed>0.69</speed>
      </trkpt>
      <trkpt lat="39.66734273" lon="115.81958576">
        <ele>257.87</ele>
        <time>2026-09-01T02:31:56Z</time>
        <speed>0.76</speed>
      </trkpt>
      <trkpt lat="39.66734514" lon="115.81969395">
        <ele>256.28</ele>
        <time>2026-09-01T02:32:07Z</time>
        <speed>1.20</speed>
      </trkpt>
      <trkpt lat="39.66735861" lon="115.81978848">
        <ele>255.47</ele>
        <time>2026-09-01T02:32:17Z</time>
        <speed>0.98</speed>
      </trkpt>
      <trkpt lat="39.66738257" lon="115.81987902">
        <ele>254.62</ele>
        <time>2026-09-01T02:32:28Z</time>
        <speed>0.91</speed>
      </trkpt>
      <trkpt lat="39.66741638" lon="115.81995536">
        <ele>254.83</ele>
        <time>2026-09-01T02:32:34Z</time>
        <speed>0.91</speed>
      </trkpt>
      <trkpt lat="39.66749925" lon="115.81993185">
        <ele>254.88</ele>
        <time>2026-09-01T02:32:43Z</time>
        <speed>0.18</speed>
      </trkpt>
      <trkpt lat="39.66757385" lon="115.81989830">
        <ele>255.10</ele>
        <time>2026-09-01T02:32:50Z</time>
        <speed>0.79</speed>
      </trkpt>
      <trkpt lat="39.66767293" lon="115.81992954">
        <ele>256.51</ele>
        <time>2026-09-01T02:32:58Z</time>
        <speed>1.03</speed>
      </trkpt>
      <trkpt lat="39.66774057" lon="115.81989351">
        <ele>256.92</ele>
        <time>2026-09-01T02:33:04Z</time>
        <speed>0.87</speed>
      </trkpt>
      <trkpt lat="39.66774698" lon="115.81999535">
        <ele>255.70</ele>
        <time>2026-09-01T02:33:27Z</time>
        <speed>0.25</speed>
      </trkpt>
      <trkpt lat="39.66771816" lon="115.81991541">
        <ele>255.26</ele>
        <time>2026-09-01T02:33:57Z</time>
        <speed>0.03</speed>
      </trkpt>
      <trkpt lat="39.66783008" lon="115.81991826">
        <ele>255.54</ele>
        <time>2026-09-01T02:34:20Z</time>
        <speed>1.04</speed>
      </trkpt>
      <trkpt lat="39.66790606" lon="115.81995650">
        <ele>254.94</ele>
        <time>2026-09-01T02:34:30Z</time>
        <speed>1.22</speed>
      </trkpt>
      <trkpt lat="39.66800754" lon="115.81996042">
        <ele>254.30</ele>
        <time>2026-09-01T02:34:46Z</time>
        <speed>0.78</speed>
      </trkpt>
      <trkpt lat="39.66807225" lon="115.82000379">
        <ele>253.03</ele>
        <time>2026-09-01T02:34:56Z</time>
        <speed>1.47</speed>
      </trkpt>
      <trkpt lat="39.66817028" lon="115.82002749">
        <ele>252.86</ele>
        <time>2026-09-01T02:35:05Z</time>
        <speed>0.85</speed>
      </trkpt>
      <trkpt lat="39.66822502" lon="115.82009761">
        <ele>254.98</ele>
        <time>2026-09-01T02:35:14Z</time>
        <speed>0.79</speed>
      </trkpt>
      <trkpt lat="39.66827836" lon="115.82014992">
        <ele>256.97</ele>
        <time>2026-09-01T02:35:22Z</time>
        <speed>1.04</speed>
      </trkpt>
      <trkpt lat="39.66835012" lon="115.82018010">
        <ele>258.68</ele>
        <time>2026-09-01T02:35:32Z</time>
        <speed>0.78</speed>
      </trkpt>
      <trkpt lat="39.66842757" lon="115.82021857">
        <ele>259.78</ele>
        <time>2026-09-01T02:35:46Z</time>
        <speed>0.82</speed>
      </trkpt>
      <trkpt lat="39.66849543" lon="115.82018435">
        <ele>259.57</ele>
        <time>2026-09-01T02:36:14Z</time>
      </trkpt>
      <trkpt lat="39.66851485" lon="115.82026830">
        <ele>262.25</ele>
        <time>2026-09-01T02:36:32Z</time>
        <speed>0.47</speed>
      </trkpt>
      <trkpt lat="39.66849452" lon="115.82036024">
        <ele>265.98</ele>
        <time>2026-09-01T02:36:44Z</time>
        <speed>0.41</speed>
      </trkpt>
      <trkpt lat="39.66851680" lon="115.82045347">
        <ele>272.78</ele>
        <time>2026-09-01T02:36:56Z</time>
        <speed>0.62</speed>
      </trkpt>
      <trkpt lat="39.66857023" lon="115.82050436">
        <ele>276.07</ele>
        <time>2026-09-01T02:37:10Z</time>
        <speed>0.38</speed>
      </trkpt>
      <trkpt lat="39.66862553" lon="115.82057591">
        <ele>277.91</ele>
        <time>2026-09-01T02:37:15Z</time>
        <speed>1.87</speed>
      </trkpt>
      <trkpt lat="39.66854040" lon="115.82055674">
        <ele>276.75</ele>
        <time>2026-09-01T02:37:21Z</time>
        <speed>0.07</speed>
      </trkpt>
      <trkpt lat="39.66863659" lon="115.82054255">
        <ele>275.06</ele>
        <time>2026-09-01T02:37:32Z</time>
        <speed>0.67</speed>
      </trkpt>
      <trkpt lat="39.66872217" lon="115.82061279">
        <ele>277.56</ele>
        <time>2026-09-01T02:37:38Z</time>
        <speed>2.40</speed>
      </trkpt>
      <trkpt lat="39.66873417" lon="115.82051222">
        <ele>281.39</ele>
        <time>2026-09-01T02:37:46Z</time>
        <speed>0.11</speed>
      </trkpt>
      <trkpt lat="39.66879079" lon="115.82044731">
        <ele>288.03</ele>
        <time>2026-09-01T02:38:02Z</time>
        <speed>0.24</speed>
      </trkpt>
      <trkpt lat="39.66869867" lon="115.82046849">
        <ele>288.96</ele>
        <time>2026-09-01T02:38:34Z</time>
      </trkpt>
      <trkpt lat="39.66875383" lon="115.82040763">
        <ele>287.68</ele>
        <time>2026-09-01T02:38:46Z</time>
        <speed>0.96</speed>
      </trkpt>
      <trkpt lat="39.66888218" lon="115.82037457">
        <ele>287.96</ele>
        <time>2026-09-01T02:38:55Z</time>
        <speed>2.26</speed>
      </trkpt>
      <trkpt lat="39.66898572" lon="115.82037924">
        <ele>296.65</ele>
        <time>2026-09-01T02:39:44Z</time>
        <speed>0.90</speed>
      </trkpt>
      <trkpt lat="39.66906501" lon="115.82041735">
        <ele>301.65</ele>
        <time>2026-09-01T02:40:10Z</time>
        <speed>0.62</speed>
      </trkpt>
      <trkpt lat="39.66914133" lon="115.82045075">
        <ele>303.84</ele>
        <time>2026-09-01T02:40:22Z</time>
        <speed>0.50</speed>
      </trkpt>
      <trkpt lat="39.66916607" lon="115.82053290">
        <ele>306.35</ele>
        <time>2026-09-01T02:40:38Z</time>
        <speed>0.55</speed>
      </trkpt>
      <trkpt lat="39.66920730" lon="115.82062155">
        <ele>307.18</ele>
        <time>2026-09-01T02:40:46Z</time>
        <speed>0.85</speed>
      </trkpt>
      <trkpt lat="39.66928299" lon="115.82065284">
        <ele>309.05</ele>
        <time>2026-09-01T02:40:55Z</time>
        <speed>0.89</speed>
      </trkpt>
      <trkpt lat="39.66933591" lon="115.82071217">
        <ele>316.71</ele>
        <time>2026-09-01T02:41:17Z</time>
        <speed>0.65</speed>
      </trkpt>
      <trkpt lat="39.66938419" lon="115.82076444">
        <ele>319.53</ele>
        <time>2026-09-01T02:41:24Z</time>
        <speed>0.64</speed>
      </trkpt>
      <trkpt lat="39.66943513" lon="115.82083780">
        <ele>320.73</ele>
        <time>2026-09-01T02:41:32Z</time>
        <speed>1.66</speed>
      </trkpt>
      <trkpt lat="39.66951743" lon="115.82085726">
        <ele>308.83</ele>
        <time>2026-09-01T02:42:29Z</time>
      </trkpt>
      <trkpt lat="39.66960520" lon="115.82089050">
        <ele>302.84</ele>
        <time>2026-09-01T02:43:12Z</time>
        <speed>1.37</speed>
      </trkpt>
      <trkpt lat="39.66957514" lon="115.82098969">
        <ele>312.15</ele>
        <time>2026-09-01T02:43:35Z</time>
        <speed>0.70</speed>
      </trkpt>
      <trkpt lat="39.66949601" lon="115.82106484">
        <ele>324.07</ele>
        <time>2026-09-01T02:43:40Z</time>
        <speed>1.18</speed>
      </trkpt>
      <trkpt lat="39.66943972" lon="115.82110967">
        <ele>328.90</ele>
        <time>2026-09-01T02:43:44Z</time>
        <speed>1.02</speed>
      </trkpt>
      <trkpt lat="39.66958435" lon="115.82093498">
        <ele>334.49</ele>
        <time>2026-09-01T02:43:54Z</time>
        <speed>0.37</speed>
      </trkpt>
      <trkpt lat="39.66967616" lon="115.82087758">
        <ele>334.18</ele>
        <time>2026-09-01T02:44:06Z</time>
        <speed>0.30</speed>
      </trkpt>
      <trkpt lat="39.66968633" lon="115.82096795">
        <ele>337.78</ele>
        <time>2026-09-01T02:44:32Z</time>
        <speed>0.10</speed>
      </trkpt>
      <trkpt lat="39.66965018" lon="115.82105067">
        <ele>341.21</ele>
        <time>2026-09-01T02:44:40Z</time>
        <speed>0.03</speed>
      </trkpt>
      <trkpt lat="39.66973453" lon="115.82099569">
        <ele>343.17</ele>
        <time>2026-09-01T02:44:54Z</time>
      </trkpt>
      <trkpt lat="39.66973399" lon="115.82109643">
        <ele>345.63</ele>
        <time>2026-09-01T02:45:18Z</time>
        <speed>0.37</speed>
      </trkpt>
      <trkpt lat="39.66977409" lon="115.82116268">
        <ele>346.15</ele>
        <time>2026-09-01T02:45:40Z</time>
        <speed>0.39</speed>
      </trkpt>
      <trkpt lat="39.66989069" lon="115.82112248">
        <ele>346.02</ele>
        <time>2026-09-01T02:46:33Z</time>
        <speed>0.79</speed>
      </trkpt>
      <trkpt lat="39.66999208" lon="115.82105230">
        <ele>345.11</ele>
        <time>2026-09-01T02:46:40Z</time>
        <speed>0.51</speed>
      </trkpt>
      <trkpt lat="39.67002318" lon="115.82114878">
        <ele>344.87</ele>
        <time>2026-09-01T02:47:04Z</time>
        <speed>0.59</speed>
      </trkpt>
      <trkpt lat="39.66996408" lon="115.82124615">
        <ele>345.09</ele>
        <time>2026-09-01T02:47:10Z</time>
        <speed>0.92</speed>
      </trkpt>
      <trkpt lat="39.67006397" lon="115.82124738">
        <ele>346.25</ele>
        <time>2026-09-01T02:47:24Z</time>
        <speed>0.16</speed>
      </trkpt>
      <trkpt lat="39.67015029" lon="115.82123095">
        <ele>345.04</ele>
        <time>2026-09-01T02:47:37Z</time>
        <speed>0.48</speed>
      </trkpt>
      <trkpt lat="39.67022922" lon="115.82117009">
        <ele>341.88</ele>
        <time>2026-09-01T02:48:09Z</time>
        <speed>0.34</speed>
      </trkpt>
      <trkpt lat="39.67022883" lon="115.82106525">
        <ele>337.96</ele>
        <time>2026-09-01T02:49:26Z</time>
        <speed>1.86</speed>
      </trkpt>
      <trkpt lat="39.67025056" lon="115.82115496">
        <ele>336.66</ele>
        <time>2026-09-01T02:49:37Z</time>
        <speed>0.09</speed>
      </trkpt>
      <trkpt lat="39.67030917" lon="115.82124261">
        <ele>330.16</ele>
        <time>2026-09-01T02:50:05Z</time>
        <speed>0.03</speed>
      </trkpt>
      <trkpt lat="39.67034942" lon="115.82117299">
        <ele>340.79</ele>
        <time>2026-09-01T02:51:10Z</time>
        <speed>0.11</speed>
      </trkpt>
      <trkpt lat="39.67024808" lon="115.82126893">
        <ele>341.19</ele>
        <time>2026-09-01T02:51:33Z</time>
      </trkpt>
      <trkpt lat="39.67030982" lon="115.82122223">
        <ele>341.58</ele>
        <time>2026-09-01T02:52:19Z</time>
      </trkpt>
      <trkpt lat="39.67024985" lon="115.82116502">
        <ele>339.80</ele>
        <time>2026-09-01T02:53:09Z</time>
        <speed>0.50</speed>
      </trkpt>
      <trkpt lat="39.67042389" lon="115.82127150">
        <ele>340.47</ele>
        <time>2026-09-01T02:54:14Z</time>
        <speed>0.02</speed>
      </trkpt>
      <trkpt lat="39.67031407" lon="115.82129591">
        <ele>343.12</ele>
        <time>2026-09-01T02:54:33Z</time>
      </trkpt>
      <trkpt lat="39.67036542" lon="115.82119675">
        <ele>340.53</ele>
        <time>2026-09-01T02:56:45Z</time>
        <speed>0.13</speed>
      </trkpt>
      <trkpt lat="39.67025448" lon="115.82126139">
        <ele>339.29</ele>
        <time>2026-09-01T03:00:03Z</time>
        <speed>0.16</speed>
      </trkpt>
      <trkpt lat="39.67023719" lon="115.82117265">
        <ele>338.48</ele>
        <time>2026-09-01T03:00:24Z</time>
        <speed>0.13</speed>
      </trkpt>
      <trkpt lat="39.67026810" lon="115.82125079">
        <ele>340.05</ele>
        <time>2026-09-01T03:00:39Z</time>
        <speed>0.18</speed>
      </trkpt>
      <trkpt lat="39.67027716" lon="115.82135769">
        <ele>340.55</ele>
        <time>2026-09-01T03:00:44Z</time>
      </trkpt>
      <trkpt lat="39.67025611" lon="115.82144128">
        <ele>340.55</ele>
        <time>2026-09-01T03:00:47Z</time>
        <speed>0.02</speed>
      </trkpt>
      <trkpt lat="39.67025039" lon="115.82133441">
        <ele>338.54</ele>
        <time>2026-09-01T03:00:52Z</time>
        <speed>0.08</speed>
      </trkpt>
      <trkpt lat="39.67028155" lon="115.82124404">
        <ele>339.53</ele>
        <time>2026-09-01T03:01:02Z</time>
        <speed>0.36</speed>
      </trkpt>
      <trkpt lat="39.67032342" lon="115.82133710">
        <ele>340.52</ele>
        <time>2026-09-01T03:01:18Z</time>
        <speed>0.14</speed>
      </trkpt>
      <trkpt lat="39.67027297" lon="115.82119531">
        <ele>340.15</ele>
        <time>2026-09-01T03:01:49Z</time>
        <speed>0.02</speed>
      </trkpt>
      <trkpt lat="39.67025204" lon="115.82106941">
        <ele>338.54</ele>
        <time>2026-09-01T03:02:03Z</time>
        <speed>0.12</speed>
      </trkpt>
      <trkpt lat="39.67033870" lon="115.82104668">
        <ele>340.16</ele>
        <time>2026-09-01T03:03:11Z</time>
      </trkpt>
      <trkpt lat="39.67032439" lon="115.82114823">
        <ele>341.92</ele>
        <time>2026-09-01T03:03:53Z</time>
        <speed>0.45</speed>
      </trkpt>
      <trkpt lat="39.67035756" lon="115.82122955">
        <ele>340.79</ele>
        <time>2026-09-01T03:04:03Z</time>
        <speed>0.60</speed>
      </trkpt>
      <trkpt lat="39.67041419" lon="115.82118037">
        <ele>341.62</ele>
        <time>2026-09-01T03:04:08Z</time>
        <speed>1.07</speed>
      </trkpt>
      <trkpt lat="39.67050155" lon="115.82114043">
        <ele>342.20</ele>
        <time>2026-09-01T03:04:17Z</time>
        <speed>0.98</speed>
      </trkpt>
      <trkpt lat="39.67059678" lon="115.82112131">
        <ele>345.22</ele>
        <time>2026-09-01T03:04:26Z</time>
        <speed>1.01</speed>
      </trkpt>
      <trkpt lat="39.67069177" lon="115.82113068">
        <ele>351.76</ele>
        <time>2026-09-01T03:04:48Z</time>
        <speed>0.63</speed>
      </trkpt>
      <trkpt lat="39.67077230" lon="115.82116695">
        <ele>353.62</ele>
        <time>2026-09-01T03:05:00Z</time>
        <speed>0.60</speed>
      </trkpt>
      <trkpt lat="39.67079288" lon="115.82125959">
        <ele>355.00</ele>
        <time>2026-09-01T03:05:08Z</time>
        <speed>0.74</speed>
      </trkpt>
      <trkpt lat="39.67069401" lon="115.82124098">
        <ele>354.91</ele>
        <time>2026-09-01T03:05:47Z</time>
      </trkpt>
      <trkpt lat="39.67079647" lon="115.82123727">
        <ele>353.09</ele>
        <time>2026-09-01T03:06:11Z</time>
        <speed>0.13</speed>
      </trkpt>
      <trkpt lat="39.67074529" lon="115.82129268">
        <ele>354.47</ele>
        <time>2026-09-01T03:06:46Z</time>
        <speed>0.23</speed>
      </trkpt>
      <trkpt lat="39.67075941" lon="115.82140578">
        <ele>350.80</ele>
        <time>2026-09-01T03:07:31Z</time>
        <speed>0.07</speed>
      </trkpt>
      <trkpt lat="39.67076495" lon="115.82150439">
        <ele>352.31</ele>
        <time>2026-09-01T03:07:38Z</time>
        <speed>0.06</speed>
      </trkpt>
      <trkpt lat="39.67084776" lon="115.82148006">
        <ele>351.60</ele>
        <time>2026-09-01T03:07:56Z</time>
        <speed>0.38</speed>
      </trkpt>
      <trkpt lat="39.67082582" lon="115.82136899">
        <ele>352.82</ele>
        <time>2026-09-01T03:08:03Z</time>
        <speed>0.47</speed>
      </trkpt>
      <trkpt lat="39.67083357" lon="115.82127411">
        <ele>353.89</ele>
        <time>2026-09-01T03:08:12Z</time>
        <speed>0.15</speed>
      </trkpt>
      <trkpt lat="39.67081759" lon="115.82141331">
        <ele>354.09</ele>
        <time>2026-09-01T03:08:19Z</time>
        <speed>0.33</speed>
      </trkpt>
      <trkpt lat="39.67080104" lon="115.82132839">
        <ele>352.95</ele>
        <time>2026-09-01T03:08:34Z</time>
      </trkpt>
      <trkpt lat="39.67079068" lon="115.82123135">
        <ele>353.70</ele>
        <time>2026-09-01T03:08:50Z</time>
        <speed>0.17</speed>
      </trkpt>
      <trkpt lat="39.67081178" lon="115.82114894">
        <ele>357.57</ele>
        <time>2026-09-01T03:09:16Z</time>
        <speed>0.28</speed>
      </trkpt>
      <trkpt lat="39.67085273" lon="115.82107969">
        <ele>359.32</ele>
        <time>2026-09-01T03:09:55Z</time>
        <speed>0.01</speed>
      </trkpt>
      <trkpt lat="39.67080991" lon="115.82100107">
        <ele>358.74</ele>
        <time>2026-09-01T03:10:23Z</time>
        <speed>0.21</speed>
      </trkpt>
      <trkpt lat="39.67085778" lon="115.82110190">
        <ele>358.65</ele>
        <time>2026-09-01T03:10:26Z</time>
        <speed>0.67</speed>
      </trkpt>
      <trkpt lat="39.67088543" lon="115.82118879">
        <ele>358.37</ele>
        <time>2026-09-01T03:10:55Z</time>
        <speed>0.90</speed>
      </trkpt>
      <trkpt lat="39.67085449" lon="115.82110382">
        <ele>358.78</ele>
        <time>2026-09-01T03:11:02Z</time>
        <speed>0.30</speed>
      </trkpt>
      <trkpt lat="39.67088720" lon="115.82118397">
        <ele>358.56</ele>
        <time>2026-09-01T03:11:52Z</time>
        <speed>0.27</speed>
      </trkpt>
      <trkpt lat="39.67081095" lon="115.82123807">
        <ele>358.22</ele>
        <time>2026-09-01T03:12:17Z</time>
        <speed>0.25</speed>
      </trkpt>
      <trkpt lat="39.67084233" lon="115.82114973">
        <ele>358.09</ele>
        <time>2026-09-01T03:12:30Z</time>
      </trkpt>
      <trkpt lat="39.67087689" lon="115.82122463">
        <ele>359.48</ele>
        <time>2026-09-01T03:12:43Z</time>
        <speed>0.91</speed>
      </trkpt>
      <trkpt lat="39.67093740" lon="115.82128035">
        <ele>359.77</ele>
        <time>2026-09-01T03:12:50Z</time>
        <speed>1.24</speed>
      </trkpt>
      <trkpt lat="39.67092708" lon="115.82116983">
        <ele>360.69</ele>
        <time>2026-09-01T03:12:56Z</time>
        <speed>1.50</speed>
      </trkpt>
      <trkpt lat="39.67093754" lon="115.82128797">
        <ele>359.63</ele>
        <time>2026-09-01T03:13:27Z</time>
        <speed>0.78</speed>
      </trkpt>
      <trkpt lat="39.67096431" lon="115.82120043">
        <ele>361.73</ele>
        <time>2026-09-01T03:13:34Z</time>
        <speed>0.22</speed>
      </trkpt>
      <trkpt lat="39.67089335" lon="115.82115786">
        <ele>360.61</ele>
        <time>2026-09-01T03:13:52Z</time>
        <speed>0.42</speed>
      </trkpt>
      <trkpt lat="39.67098063" lon="115.82127093">
        <ele>361.59</ele>
        <time>2026-09-01T03:14:13Z</time>
        <speed>3.36</speed>
      </trkpt>
      <trkpt lat="39.67099409" lon="115.82137546">
        <ele>360.61</ele>
        <time>2026-09-01T03:14:19Z</time>
        <speed>1.68</speed>
      </trkpt>
      <trkpt lat="39.67104762" lon="115.82130958">
        <ele>360.98</ele>
        <time>2026-09-01T03:14:26Z</time>
        <speed>0.55</speed>
      </trkpt>
      <trkpt lat="39.67108128" lon="115.82122846">
        <ele>358.75</ele>
        <time>2026-09-01T03:14:33Z</time>
        <speed>0.75</speed>
      </trkpt>
      <trkpt lat="39.67113087" lon="115.82116595">
        <ele>364.62</ele>
        <time>2026-09-01T03:14:49Z</time>
        <speed>0.74</speed>
      </trkpt>
      <trkpt lat="39.67114303" lon="115.82126288">
        <ele>365.17</ele>
        <time>2026-09-01T03:14:55Z</time>
        <speed>0.14</speed>
      </trkpt>
      <trkpt lat="39.67118482" lon="115.82143206">
        <ele>369.35</ele>
        <time>2026-09-01T03:15:18Z</time>
        <speed>0.51</speed>
      </trkpt>
      <trkpt lat="39.67118930" lon="115.82156748">
        <ele>370.10</ele>
        <time>2026-09-01T03:15:22Z</time>
      </trkpt>
      <trkpt lat="39.67116749" lon="115.82165269">
        <ele>369.26</ele>
        <time>2026-09-01T03:15:36Z</time>
        <speed>0.19</speed>
      </trkpt>
      <trkpt lat="39.67114889" lon="115.82176430">
        <ele>370.20</ele>
        <time>2026-09-01T03:15:43Z</time>
        <speed>0.13</speed>
      </trkpt>
      <trkpt lat="39.67115810" lon="115.82158941">
        <ele>370.72</ele>
        <time>2026-09-01T03:15:51Z</time>
        <speed>0.22</speed>
      </trkpt>
      <trkpt lat="39.67118883" lon="115.82149571">
        <ele>370.48</ele>
        <time>2026-09-01T03:15:55Z</time>
        <speed>1.42</speed>
      </trkpt>
      <trkpt lat="39.67117795" lon="115.82139285">
        <ele>375.88</ele>
        <time>2026-09-01T03:16:07Z</time>
        <speed>0.10</speed>
      </trkpt>
      <trkpt lat="39.67110647" lon="115.82134216">
        <ele>373.64</ele>
        <time>2026-09-01T03:16:36Z</time>
      </trkpt>
      <trkpt lat="39.67115652" lon="115.82125243">
        <ele>373.17</ele>
        <time>2026-09-01T03:17:00Z</time>
      </trkpt>
      <trkpt lat="39.67124363" lon="115.82128284">
        <ele>371.49</ele>
        <time>2026-09-01T03:17:42Z</time>
        <speed>0.08</speed>
      </trkpt>
      <trkpt lat="39.67119814" lon="115.82137779">
        <ele>374.43</ele>
        <time>2026-09-01T03:17:52Z</time>
        <speed>0.06</speed>
      </trkpt>
      <trkpt lat="39.67125692" lon="115.82149349">
        <ele>377.81</ele>
        <time>2026-09-01T03:18:04Z</time>
        <speed>0.99</speed>
      </trkpt>
      <trkpt lat="39.67117993" lon="115.82137303">
        <ele>377.33</ele>
        <time>2026-09-01T03:18:06Z</time>
        <speed>1.49</speed>
      </trkpt>
      <trkpt lat="39.67124467" lon="115.82145369">
        <ele>375.65</ele>
        <time>2026-09-01T03:18:24Z</time>
        <speed>0.92</speed>
      </trkpt>
      <trkpt lat="39.67132071" lon="115.82148850">
        <ele>379.51</ele>
        <time>2026-09-01T03:18:29Z</time>
        <speed>1.44</speed>
      </trkpt>
      <trkpt lat="39.67135733" lon="115.82134340">
        <ele>381.59</ele>
        <time>2026-09-01T03:18:42Z</time>
        <speed>0.65</speed>
      </trkpt>
      <trkpt lat="39.67133174" lon="115.82141977">
        <ele>380.98</ele>
        <time>2026-09-01T03:18:43Z</time>
        <speed>0.58</speed>
      </trkpt>
      <trkpt lat="39.67139929" lon="115.82129786">
        <ele>380.06</ele>
        <time>2026-09-01T03:18:59Z</time>
        <speed>2.39</speed>
      </trkpt>
      <trkpt lat="39.67131694" lon="115.82145849">
        <ele>379.69</ele>
        <time>2026-09-01T03:19:02Z</time>
      </trkpt>
      <trkpt lat="39.67137818" lon="115.82141142">
        <ele>369.88</ele>
        <time>2026-09-01T03:20:57Z</time>
        <speed>1.33</speed>
      </trkpt>
      <trkpt lat="39.67140403" lon="115.82148872">
        <ele>377.35</ele>
        <time>2026-09-01T03:21:43Z</time>
        <speed>0.99</speed>
      </trkpt>
      <trkpt lat="39.67135746" lon="115.82159665">
        <ele>381.16</ele>
        <time>2026-09-01T03:21:50Z</time>
        <speed>2.00</speed>
      </trkpt>
      <trkpt lat="39.67143434" lon="115.82151488">
        <ele>381.36</ele>
        <time>2026-09-01T03:21:53Z</time>
        <speed>1.23</speed>
      </trkpt>
      <trkpt lat="39.67153408" lon="115.82152433">
        <ele>383.14</ele>
        <time>2026-09-01T03:21:59Z</time>
        <speed>1.48</speed>
      </trkpt>
      <trkpt lat="39.67163280" lon="115.82149082">
        <ele>385.42</ele>
        <time>2026-09-01T03:22:05Z</time>
        <speed>1.35</speed>
      </trkpt>
      <trkpt lat="39.67172016" lon="115.82145282">
        <ele>386.66</ele>
        <time>2026-09-01T03:22:09Z</time>
        <speed>1.65</speed>
      </trkpt>
      <trkpt lat="39.67178556" lon="115.82139653">
        <ele>388.39</ele>
        <time>2026-09-01T03:22:15Z</time>
        <speed>1.17</speed>
      </trkpt>
      <trkpt lat="39.67189685" lon="115.82135571">
        <ele>390.31</ele>
        <time>2026-09-01T03:22:33Z</time>
        <speed>1.00</speed>
      </trkpt>
      <trkpt lat="39.67202154" lon="115.82136049">
        <ele>392.15</ele>
        <time>2026-09-01T03:22:44Z</time>
        <speed>2.74</speed>
      </trkpt>
      <trkpt lat="39.67209206" lon="115.82140664">
        <ele>395.63</ele>
        <time>2026-09-01T03:23:00Z</time>
        <speed>1.10</speed>
      </trkpt>
      <trkpt lat="39.67217033" lon="115.82144183">
        <ele>394.97</ele>
        <time>2026-09-01T03:23:14Z</time>
        <speed>0.78</speed>
      </trkpt>
      <trkpt lat="39.67224730" lon="115.82150405">
        <ele>396.33</ele>
        <time>2026-09-01T03:23:26Z</time>
        <speed>0.82</speed>
      </trkpt>
      <trkpt lat="39.67233771" lon="115.82151814">
        <ele>395.57</ele>
        <time>2026-09-01T03:23:33Z</time>
        <speed>1.00</speed>
      </trkpt>
      <trkpt lat="39.67240057" lon="115.82156816">
        <ele>394.85</ele>
        <time>2026-09-01T03:23:44Z</time>
        <speed>1.26</speed>
      </trkpt>
      <trkpt lat="39.67241771" lon="115.82166443">
        <ele>394.09</ele>
        <time>2026-09-01T03:23:51Z</time>
        <speed>1.13</speed>
      </trkpt>
      <trkpt lat="39.67244806" lon="115.82174133">
        <ele>392.97</ele>
        <time>2026-09-01T03:23:56Z</time>
        <speed>1.53</speed>
      </trkpt>
      <trkpt lat="39.67251653" lon="115.82168178">
        <ele>390.76</ele>
        <time>2026-09-01T03:24:01Z</time>
        <speed>1.99</speed>
      </trkpt>
      <trkpt lat="39.67257872" lon="115.82174014">
        <ele>392.27</ele>
        <time>2026-09-01T03:24:11Z</time>
        <speed>0.98</speed>
      </trkpt>
      <trkpt lat="39.67260689" lon="115.82185115">
        <ele>393.24</ele>
        <time>2026-09-01T03:24:33Z</time>
        <speed>0.83</speed>
      </trkpt>
      <trkpt lat="39.67266334" lon="115.82175824">
        <ele>394.06</ele>
        <time>2026-09-01T03:24:42Z</time>
        <speed>0.61</speed>
      </trkpt>
      <trkpt lat="39.67275549" lon="115.82172584">
        <ele>396.84</ele>
        <time>2026-09-01T03:24:58Z</time>
        <speed>0.68</speed>
      </trkpt>
      <trkpt lat="39.67278502" lon="115.82180801">
        <ele>398.05</ele>
        <time>2026-09-01T03:25:09Z</time>
        <speed>0.35</speed>
      </trkpt>
      <trkpt lat="39.67285092" lon="115.82185582">
        <ele>399.50</ele>
        <time>2026-09-01T03:25:19Z</time>
        <speed>0.60</speed>
      </trkpt>
      <trkpt lat="39.67292270" lon="115.82189621">
        <ele>401.57</ele>
        <time>2026-09-01T03:25:35Z</time>
        <speed>0.26</speed>
      </trkpt>
      <trkpt lat="39.67295006" lon="115.82199334">
        <ele>401.89</ele>
        <time>2026-09-01T03:25:51Z</time>
        <speed>0.28</speed>
      </trkpt>
      <trkpt lat="39.67299849" lon="115.82206562">
        <ele>402.11</ele>
        <time>2026-09-01T03:26:02Z</time>
        <speed>0.27</speed>
      </trkpt>
      <trkpt lat="39.67304933" lon="115.82213826">
        <ele>402.62</ele>
        <time>2026-09-01T03:26:08Z</time>
        <speed>0.61</speed>
      </trkpt>
      <trkpt lat="39.67308614" lon="115.82222392">
        <ele>402.93</ele>
        <time>2026-09-01T03:26:28Z</time>
        <speed>1.00</speed>
      </trkpt>
      <trkpt lat="39.67310182" lon="115.82232783">
        <ele>403.54</ele>
        <time>2026-09-01T03:26:38Z</time>
        <speed>0.94</speed>
      </trkpt>
      <trkpt lat="39.67321661" lon="115.82235291">
        <ele>405.18</ele>
        <time>2026-09-01T03:26:48Z</time>
        <speed>0.72</speed>
      </trkpt>
      <trkpt lat="39.67326054" lon="115.82242164">
        <ele>406.08</ele>
        <time>2026-09-01T03:26:58Z</time>
        <speed>0.33</speed>
      </trkpt>
      <trkpt lat="39.67331251" lon="115.82249190">
        <ele>406.88</ele>
        <time>2026-09-01T03:27:06Z</time>
        <speed>1.01</speed>
      </trkpt>
      <trkpt lat="39.67339048" lon="115.82251541">
        <ele>407.45</ele>
        <time>2026-09-01T03:27:29Z</time>
        <speed>0.55</speed>
      </trkpt>
      <trkpt lat="39.67347140" lon="115.82248945">
        <ele>405.69</ele>
        <time>2026-09-01T03:28:01Z</time>
        <speed>0.30</speed>
      </trkpt>
      <trkpt lat="39.67355772" lon="115.82250755">
        <ele>405.93</ele>
        <time>2026-09-01T03:28:24Z</time>
        <speed>0.49</speed>
      </trkpt>
      <trkpt lat="39.67357286" lon="115.82259427">
        <ele>407.35</ele>
        <time>2026-09-01T03:28:33Z</time>
        <speed>0.74</speed>
      </trkpt>
      <trkpt lat="39.67363538" lon="115.82263421">
        <ele>408.95</ele>
        <time>2026-09-01T03:28:49Z</time>
        <speed>0.44</speed>
      </trkpt>
      <trkpt lat="39.67371468" lon="115.82266087">
        <ele>409.97</ele>
        <time>2026-09-01T03:29:07Z</time>
        <speed>0.71</speed>
      </trkpt>
      <trkpt lat="39.67377401" lon="115.82272434">
        <ele>409.91</ele>
        <time>2026-09-01T03:29:22Z</time>
        <speed>1.25</speed>
      </trkpt>
      <trkpt lat="39.67385476" lon="115.82267961">
        <ele>409.92</ele>
        <time>2026-09-01T03:29:43Z</time>
      </trkpt>
      <trkpt lat="39.67392377" lon="115.82263351">
        <ele>409.03</ele>
        <time>2026-09-01T03:30:15Z</time>
        <speed>0.68</speed>
      </trkpt>
      <trkpt lat="39.67402436" lon="115.82267009">
        <ele>409.33</ele>
        <time>2026-09-01T03:30:29Z</time>
        <speed>1.69</speed>
      </trkpt>
      <trkpt lat="39.67411407" lon="115.82274310">
        <ele>410.05</ele>
        <time>2026-09-01T03:30:45Z</time>
        <speed>0.69</speed>
      </trkpt>
      <trkpt lat="39.67415874" lon="115.82280296">
        <ele>410.66</ele>
        <time>2026-09-01T03:30:55Z</time>
        <speed>0.57</speed>
      </trkpt>
      <trkpt lat="39.67424419" lon="115.82282409">
        <ele>411.05</ele>
        <time>2026-09-01T03:31:07Z</time>
        <speed>1.39</speed>
      </trkpt>
      <trkpt lat="39.67433549" lon="115.82285295">
        <ele>409.27</ele>
        <time>2026-09-01T03:31:21Z</time>
        <speed>0.63</speed>
      </trkpt>
      <trkpt lat="39.67442434" lon="115.82281930">
        <ele>406.73</ele>
        <time>2026-09-01T03:31:30Z</time>
        <speed>0.47</speed>
      </trkpt>
      <trkpt lat="39.67451445" lon="115.82277792">
        <ele>405.08</ele>
        <time>2026-09-01T03:31:52Z</time>
        <speed>1.62</speed>
      </trkpt>
      <trkpt lat="39.67446740" lon="115.82266974">
        <ele>405.10</ele>
        <time>2026-09-01T03:32:04Z</time>
        <speed>0.50</speed>
      </trkpt>
      <trkpt lat="39.67455774" lon="115.82262558">
        <ele>405.67</ele>
        <time>2026-09-01T03:32:18Z</time>
        <speed>0.92</speed>
      </trkpt>
      <trkpt lat="39.67458817" lon="115.82252585">
        <ele>405.94</ele>
        <time>2026-09-01T03:32:27Z</time>
        <speed>1.34</speed>
      </trkpt>
      <trkpt lat="39.67467845" lon="115.82251535">
        <ele>408.43</ele>
        <time>2026-09-01T03:32:41Z</time>
        <speed>0.39</speed>
      </trkpt>
      <trkpt lat="39.67477538" lon="115.82253216">
        <ele>410.38</ele>
        <time>2026-09-01T03:33:01Z</time>
        <speed>0.55</speed>
      </trkpt>
      <trkpt lat="39.67483631" lon="115.82248157">
        <ele>410.96</ele>
        <time>2026-09-01T03:33:09Z</time>
        <speed>0.52</speed>
      </trkpt>
      <trkpt lat="39.67486655" lon="115.82257251">
        <ele>410.30</ele>
        <time>2026-09-01T03:33:45Z</time>
        <speed>0.47</speed>
      </trkpt>
      <trkpt lat="39.67491266" lon="115.82250190">
        <ele>410.29</ele>
        <time>2026-09-01T03:33:57Z</time>
        <speed>0.28</speed>
      </trkpt>
      <trkpt lat="39.67496582" lon="115.82254934">
        <ele>411.29</ele>
        <time>2026-09-01T03:34:34Z</time>
        <speed>0.40</speed>
      </trkpt>
      <trkpt lat="39.67499426" lon="115.82247183">
        <ele>410.80</ele>
        <time>2026-09-01T03:35:06Z</time>
        <speed>0.34</speed>
      </trkpt>
      <trkpt lat="39.67506057" lon="115.82258565">
        <ele>410.54</ele>
        <time>2026-09-01T03:35:10Z</time>
        <speed>1.09</speed>
      </trkpt>
      <trkpt lat="39.67501137" lon="115.82265291">
        <ele>411.63</ele>
        <time>2026-09-01T03:35:17Z</time>
        <speed>0.04</speed>
      </trkpt>
      <trkpt lat="39.67503781" lon="115.82272996">
        <ele>413.69</ele>
        <time>2026-09-01T03:35:28Z</time>
        <speed>0.66</speed>
      </trkpt>
      <trkpt lat="39.67511682" lon="115.82276690">
        <ele>414.48</ele>
        <time>2026-09-01T03:35:45Z</time>
        <speed>1.10</speed>
      </trkpt>
      <trkpt lat="39.67520053" lon="115.82282563">
        <ele>416.02</ele>
        <time>2026-09-01T03:36:06Z</time>
        <speed>0.95</speed>
      </trkpt>
      <trkpt lat="39.67528243" lon="115.82286704">
        <ele>418.83</ele>
        <time>2026-09-01T03:36:16Z</time>
        <speed>0.17</speed>
      </trkpt>
      <trkpt lat="39.67537749" lon="115.82284880">
        <ele>421.16</ele>
        <time>2026-09-01T03:36:30Z</time>
        <speed>2.52</speed>
      </trkpt>
      <trkpt lat="39.67540233" lon="115.82294016">
        <ele>426.67</ele>
        <time>2026-09-01T03:36:51Z</time>
        <speed>0.46</speed>
      </trkpt>
      <trkpt lat="39.67548861" lon="115.82295657">
        <ele>428.88</ele>
        <time>2026-09-01T03:37:24Z</time>
        <speed>0.38</speed>
      </trkpt>
      <trkpt lat="39.67556653" lon="115.82290957">
        <ele>431.39</ele>
        <time>2026-09-01T03:37:41Z</time>
        <speed>0.72</speed>
      </trkpt>
      <trkpt lat="39.67553166" lon="115.82284376">
        <ele>432.27</ele>
        <time>2026-09-01T03:37:59Z</time>
        <speed>0.41</speed>
      </trkpt>
      <trkpt lat="39.67558087" lon="115.82278163">
        <ele>432.64</ele>
        <time>2026-09-01T03:38:28Z</time>
        <speed>0.41</speed>
      </trkpt>
      <trkpt lat="39.67555528" lon="115.82269887">
        <ele>433.07</ele>
        <time>2026-09-01T03:38:49Z</time>
        <speed>0.20</speed>
      </trkpt>
      <trkpt lat="39.67559748" lon="115.82262098">
        <ele>431.23</ele>
        <time>2026-09-01T03:39:17Z</time>
        <speed>0.68</speed>
      </trkpt>
      <trkpt lat="39.67567632" lon="115.82265025">
        <ele>434.27</ele>
        <time>2026-09-01T03:39:39Z</time>
        <speed>0.17</speed>
      </trkpt>
      <trkpt lat="39.67576786" lon="115.82263314">
        <ele>438.00</ele>
        <time>2026-09-01T03:39:54Z</time>
        <speed>0.69</speed>
      </trkpt>
      <trkpt lat="39.67577923" lon="115.82253481">
        <ele>438.55</ele>
        <time>2026-09-01T03:39:58Z</time>
        <speed>1.09</speed>
      </trkpt>
      <trkpt lat="39.67570083" lon="115.82267224">
        <ele>438.81</ele>
        <time>2026-09-01T03:40:01Z</time>
        <speed>0.98</speed>
      </trkpt>
      <trkpt lat="39.67575503" lon="115.82253382">
        <ele>438.70</ele>
        <time>2026-09-01T03:40:05Z</time>
        <speed>0.55</speed>
      </trkpt>
      <trkpt lat="39.67568472" lon="115.82257052">
        <ele>436.14</ele>
        <time>2026-09-01T03:40:38Z</time>
        <speed>0.39</speed>
      </trkpt>
      <trkpt lat="39.67576060" lon="115.82251946">
        <ele>436.96</ele>
        <time>2026-09-01T03:40:59Z</time>
        <speed>0.28</speed>
      </trkpt>
      <trkpt lat="39.67579372" lon="115.82244492">
        <ele>437.58</ele>
        <time>2026-09-01T03:41:06Z</time>
        <speed>0.48</speed>
      </trkpt>
      <trkpt lat="39.67576668" lon="115.82234155">
        <ele>437.52</ele>
        <time>2026-09-01T03:41:19Z</time>
        <speed>0.84</speed>
      </trkpt>
      <trkpt lat="39.67573670" lon="115.82224856">
        <ele>436.53</ele>
        <time>2026-09-01T03:41:38Z</time>
        <speed>0.09</speed>
      </trkpt>
      <trkpt lat="39.67575074" lon="115.82234066">
        <ele>436.44</ele>
        <time>2026-09-01T03:41:42Z</time>
        <speed>0.16</speed>
      </trkpt>
      <trkpt lat="39.67572554" lon="115.82242472">
        <ele>436.35</ele>
        <time>2026-09-01T03:41:53Z</time>
        <speed>0.04</speed>
      </trkpt>
      <trkpt lat="39.67572911" lon="115.82253300">
        <ele>437.35</ele>
        <time>2026-09-01T03:43:34Z</time>
        <speed>1.53</speed>
      </trkpt>
      <trkpt lat="39.67576024" lon="115.82244747">
        <ele>436.88</ele>
        <time>2026-09-01T03:43:48Z</time>
        <speed>0.20</speed>
      </trkpt>
      <trkpt lat="39.67579244" lon="115.82237284">
        <ele>438.34</ele>
        <time>2026-09-01T03:44:23Z</time>
        <speed>0.10</speed>
      </trkpt>
      <trkpt lat="39.67569675" lon="115.82242698">
        <ele>439.26</ele>
        <time>2026-09-01T03:44:49Z</time>
        <speed>0.62</speed>
      </trkpt>
      <trkpt lat="39.67578313" lon="115.82245047">
        <ele>438.95</ele>
        <time>2026-09-01T03:45:14Z</time>
        <speed>0.32</speed>
      </trkpt>
      <trkpt lat="39.67585160" lon="115.82238245">
        <ele>438.08</ele>
        <time>2026-09-01T03:46:00Z</time>
        <speed>0.29</speed>
      </trkpt>
      <trkpt lat="39.67592742" lon="115.82235569">
        <ele>443.19</ele>
        <time>2026-09-01T03:46:34Z</time>
        <speed>0.60</speed>
      </trkpt>
      <trkpt lat="39.67590293" lon="115.82227762">
        <ele>444.20</ele>
        <time>2026-09-01T03:46:39Z</time>
        <speed>0.94</speed>
      </trkpt>
      <trkpt lat="39.67587295" lon="115.82234987">
        <ele>444.03</ele>
        <time>2026-09-01T03:46:51Z</time>
        <speed>0.49</speed>
      </trkpt>
      <trkpt lat="39.67573906" lon="115.82233791">
        <ele>442.27</ele>
        <time>2026-09-01T03:46:57Z</time>
        <speed>0.14</speed>
      </trkpt>
      <trkpt lat="39.67575007" lon="115.82243154">
        <ele>439.28</ele>
        <time>2026-09-01T03:47:11Z</time>
      </trkpt>
      <trkpt lat="39.67581008" lon="115.82238447">
        <ele>438.78</ele>
        <time>2026-09-01T03:47:56Z</time>
        <speed>0.08</speed>
      </trkpt>
      <trkpt lat="39.67575064" lon="115.82242823">
        <ele>439.24</ele>
        <time>2026-09-01T03:48:38Z</time>
        <speed>0.11</speed>
      </trkpt>
      <trkpt lat="39.67577046" lon="115.82242807">
        <ele>439.57</ele>
        <time>2026-09-01T03:58:41Z</time>
      </trkpt>
      <trkpt lat="39.67579251" lon="115.82240414">
        <ele>442.46</ele>
        <time>2026-09-01T04:08:43Z</time>
        <speed>0.04</speed>
      </trkpt>
      <trkpt lat="39.67579561" lon="115.82236013">
        <ele>439.34</ele>
        <time>2026-09-01T04:18:45Z</time>
      </trkpt>
      <trkpt lat="39.67581410" lon="115.82244238">
        <ele>439.91</ele>
        <time>2026-09-01T04:19:36Z</time>
        <speed>0.01</speed>
      </trkpt>
      <trkpt lat="39.67575794" lon="115.82238976">
        <ele>440.07</ele>
        <time>2026-09-01T04:29:12Z</time>
        <speed>0.41</speed>
      </trkpt>
      <trkpt lat="39.67577900" lon="115.82247309">
        <ele>438.92</ele>
        <time>2026-09-01T04:31:04Z</time>
        <speed>0.51</speed>
      </trkpt>
      <trkpt lat="39.67570256" lon="115.82251464">
        <ele>434.34</ele>
        <time>2026-09-01T04:32:31Z</time>
        <speed>0.78</speed>
      </trkpt>
      <trkpt lat="39.67572150" lon="115.82261212">
        <ele>435.97</ele>
        <time>2026-09-01T04:33:41Z</time>
        <speed>0.07</speed>
      </trkpt>
      <trkpt lat="39.67576883" lon="115.82266929">
        <ele>437.47</ele>
        <time>2026-09-01T04:34:54Z</time>
        <speed>0.06</speed>
      </trkpt>
      <trkpt lat="39.67567572" lon="115.82271861">
        <ele>436.31</ele>
        <time>2026-09-01T04:35:36Z</time>
        <speed>0.86</speed>
      </trkpt>
      <trkpt lat="39.67563542" lon="115.82264535">
        <ele>434.52</ele>
        <time>2026-09-01T04:35:42Z</time>
        <speed>0.55</speed>
      </trkpt>
      <trkpt lat="39.67560076" lon="115.82257958">
        <ele>432.92</ele>
        <time>2026-09-01T04:35:46Z</time>
        <speed>0.50</speed>
      </trkpt>
      <trkpt lat="39.67552118" lon="115.82261460">
        <ele>427.94</ele>
        <time>2026-09-01T04:35:58Z</time>
        <speed>0.51</speed>
      </trkpt>
      <trkpt lat="39.67555840" lon="115.82270371">
        <ele>427.75</ele>
        <time>2026-09-01T04:36:07Z</time>
        <speed>0.03</speed>
      </trkpt>
      <trkpt lat="39.67562920" lon="115.82275476">
        <ele>430.82</ele>
        <time>2026-09-01T04:36:16Z</time>
        <speed>0.67</speed>
      </trkpt>
      <trkpt lat="39.67573361" lon="115.82276323">
        <ele>436.39</ele>
        <time>2026-09-01T04:36:28Z</time>
        <speed>0.84</speed>
      </trkpt>
      <trkpt lat="39.67566252" lon="115.82287539">
        <ele>438.85</ele>
        <time>2026-09-01T04:38:28Z</time>
      </trkpt>
      <trkpt lat="39.67571920" lon="115.82279975">
        <ele>437.90</ele>
        <time>2026-09-01T04:38:42Z</time>
        <speed>0.36</speed>
      </trkpt>
      <trkpt lat="39.67565643" lon="115.82270717">
        <ele>437.16</ele>
        <time>2026-09-01T04:38:46Z</time>
        <speed>0.80</speed>
      </trkpt>
      <trkpt lat="39.67560679" lon="115.82263393">
        <ele>434.16</ele>
        <time>2026-09-01T04:38:59Z</time>
        <speed>0.62</speed>
      </trkpt>
      <trkpt lat="39.67557360" lon="115.82272779">
        <ele>431.71</ele>
        <time>2026-09-01T04:39:19Z</time>
        <speed>0.34</speed>
      </trkpt>
      <trkpt lat="39.67549554" lon="115.82275625">
        <ele>429.31</ele>
        <time>2026-09-01T04:39:38Z</time>
        <speed>0.27</speed>
      </trkpt>
      <trkpt lat="39.67545047" lon="115.82283792">
        <ele>426.80</ele>
        <time>2026-09-01T04:39:54Z</time>
        <speed>0.16</speed>
      </trkpt>
      <trkpt lat="39.67548248" lon="115.82291618">
        <ele>426.77</ele>
        <time>2026-09-01T04:39:58Z</time>
        <speed>1.12</speed>
      </trkpt>
      <trkpt lat="39.67553624" lon="115.82298582">
        <ele>430.81</ele>
        <time>2026-09-01T04:40:32Z</time>
        <speed>0.07</speed>
      </trkpt>
      <trkpt lat="39.67559925" lon="115.82302972">
        <ele>433.84</ele>
        <time>2026-09-01T04:40:55Z</time>
        <speed>0.09</speed>
      </trkpt>
      <trkpt lat="39.67562243" lon="115.82312645">
        <ele>433.96</ele>
        <time>2026-09-01T04:41:13Z</time>
        <speed>1.01</speed>
      </trkpt>
      <trkpt lat="39.67564944" lon="115.82303168">
        <ele>434.70</ele>
        <time>2026-09-01T04:41:48Z</time>
        <speed>0.16</speed>
      </trkpt>
      <trkpt lat="39.67555494" lon="115.82304655">
        <ele>433.89</ele>
        <time>2026-09-01T04:41:55Z</time>
        <speed>0.14</speed>
      </trkpt>
      <trkpt lat="39.67557231" lon="115.82295561">
        <ele>431.53</ele>
        <time>2026-09-01T04:42:46Z</time>
        <speed>0.20</speed>
      </trkpt>
      <trkpt lat="39.67562099" lon="115.82288678">
        <ele>432.28</ele>
        <time>2026-09-01T04:42:57Z</time>
        <speed>0.29</speed>
      </trkpt>
      <trkpt lat="39.67560936" lon="115.82279607">
        <ele>432.09</ele>
        <time>2026-09-01T04:43:02Z</time>
        <speed>0.36</speed>
      </trkpt>
      <trkpt lat="39.67551623" lon="115.82282387">
        <ele>431.44</ele>
        <time>2026-09-01T04:43:30Z</time>
        <speed>1.01</speed>
      </trkpt>
      <trkpt lat="39.67548371" lon="115.82289508">
        <ele>429.86</ele>
        <time>2026-09-01T04:43:37Z</time>
        <speed>0.40</speed>
      </trkpt>
      <trkpt lat="39.67542863" lon="115.82294896">
        <ele>428.56</ele>
        <time>2026-09-01T04:43:40Z</time>
        <speed>1.64</speed>
      </trkpt>
      <trkpt lat="39.67537517" lon="115.82290169">
        <ele>425.39</ele>
        <time>2026-09-01T04:43:49Z</time>
        <speed>0.23</speed>
      </trkpt>
      <trkpt lat="39.67528634" lon="115.82288043">
        <ele>421.36</ele>
        <time>2026-09-01T04:43:58Z</time>
        <speed>0.41</speed>
      </trkpt>
      <trkpt lat="39.67522707" lon="115.82294583">
        <ele>419.41</ele>
        <time>2026-09-01T04:44:13Z</time>
        <speed>0.05</speed>
      </trkpt>
      <trkpt lat="39.67515520" lon="115.82287468">
        <ele>418.08</ele>
        <time>2026-09-01T04:44:31Z</time>
        <speed>0.06</speed>
      </trkpt>
      <trkpt lat="39.67514964" lon="115.82277243">
        <ele>416.15</ele>
        <time>2026-09-01T04:44:46Z</time>
        <speed>1.16</speed>
      </trkpt>
      <trkpt lat="39.67512940" lon="115.82267861">
        <ele>413.92</ele>
        <time>2026-09-01T04:44:58Z</time>
        <speed>0.64</speed>
      </trkpt>
      <trkpt lat="39.67507189" lon="115.82261801">
        <ele>412.43</ele>
        <time>2026-09-01T04:45:08Z</time>
        <speed>0.26</speed>
      </trkpt>
      <trkpt lat="39.67502444" lon="115.82252587">
        <ele>411.21</ele>
        <time>2026-09-01T04:45:12Z</time>
        <speed>0.63</speed>
      </trkpt>
      <trkpt lat="39.67496956" lon="115.82246825">
        <ele>410.06</ele>
        <time>2026-09-01T04:45:15Z</time>
        <speed>1.23</speed>
      </trkpt>
      <trkpt lat="39.67488061" lon="115.82244244">
        <ele>409.95</ele>
        <time>2026-09-01T04:45:22Z</time>
        <speed>0.60</speed>
      </trkpt>
      <trkpt lat="39.67479737" lon="115.82241538">
        <ele>409.15</ele>
        <time>2026-09-01T04:45:30Z</time>
        <speed>0.70</speed>
      </trkpt>
      <trkpt lat="39.67475252" lon="115.82248063">
        <ele>410.09</ele>
        <time>2026-09-01T04:45:38Z</time>
        <speed>0.53</speed>
      </trkpt>
      <trkpt lat="39.67468310" lon="115.82253153">
        <ele>409.23</ele>
        <time>2026-09-01T04:45:47Z</time>
        <speed>1.34</speed>
      </trkpt>
      <trkpt lat="39.67459953" lon="115.82255262">
        <ele>406.49</ele>
        <time>2026-09-01T04:46:04Z</time>
        <speed>0.77</speed>
      </trkpt>
      <trkpt lat="39.67452978" lon="115.82258865">
        <ele>404.87</ele>
        <time>2026-09-01T04:46:33Z</time>
        <speed>0.14</speed>
      </trkpt>
      <trkpt lat="39.67454872" lon="115.82269336">
        <ele>404.70</ele>
        <time>2026-09-01T04:46:57Z</time>
        <speed>0.06</speed>
      </trkpt>
      <trkpt lat="39.67450422" lon="115.82262823">
        <ele>404.44</ele>
        <time>2026-09-01T04:47:48Z</time>
        <speed>0.14</speed>
      </trkpt>
      <trkpt lat="39.67456101" lon="115.82268362">
        <ele>404.63</ele>
        <time>2026-09-01T04:48:42Z</time>
        <speed>0.33</speed>
      </trkpt>
      <trkpt lat="39.67453209" lon="115.82275538">
        <ele>404.89</ele>
        <time>2026-09-01T04:49:03Z</time>
        <speed>0.66</speed>
      </trkpt>
      <trkpt lat="39.67446362" lon="115.82279477">
        <ele>403.98</ele>
        <time>2026-09-01T04:49:36Z</time>
        <speed>0.87</speed>
      </trkpt>
      <trkpt lat="39.67448007" lon="115.82287963">
        <ele>404.14</ele>
        <time>2026-09-01T04:49:45Z</time>
        <speed>0.31</speed>
      </trkpt>
      <trkpt lat="39.67454212" lon="115.82293517">
        <ele>407.36</ele>
        <time>2026-09-01T04:50:04Z</time>
        <speed>0.04</speed>
      </trkpt>
      <trkpt lat="39.67462375" lon="115.82298869">
        <ele>409.14</ele>
        <time>2026-09-01T04:50:10Z</time>
        <speed>1.26</speed>
      </trkpt>
      <trkpt lat="39.67460566" lon="115.82309361">
        <ele>414.57</ele>
        <time>2026-09-01T04:50:27Z</time>
        <speed>0.95</speed>
      </trkpt>
      <trkpt lat="39.67453414" lon="115.82313859">
        <ele>415.62</ele>
        <time>2026-09-01T04:50:35Z</time>
        <speed>0.33</speed>
      </trkpt>
      <trkpt lat="39.67451704" lon="115.82324011">
        <ele>418.16</ele>
        <time>2026-09-01T04:50:48Z</time>
        <speed>0.02</speed>
      </trkpt>
      <trkpt lat="39.67455783" lon="115.82330539">
        <ele>420.02</ele>
        <time>2026-09-01T04:50:54Z</time>
        <speed>0.14</speed>
      </trkpt>
      <trkpt lat="39.67458976" lon="115.82338535">
        <ele>424.06</ele>
        <time>2026-09-01T04:51:04Z</time>
        <speed>0.20</speed>
      </trkpt>
      <trkpt lat="39.67454228" lon="115.82345021">
        <ele>426.42</ele>
        <time>2026-09-01T04:51:15Z</time>
        <speed>0.39</speed>
      </trkpt>
      <trkpt lat="39.67455781" lon="115.82354101">
        <ele>430.38</ele>
        <time>2026-09-01T04:51:30Z</time>
        <speed>0.53</speed>
      </trkpt>
      <trkpt lat="39.67464931" lon="115.82352574">
        <ele>432.94</ele>
        <time>2026-09-01T04:51:45Z</time>
        <speed>0.57</speed>
      </trkpt>
      <trkpt lat="39.67474735" lon="115.82346026">
        <ele>430.48</ele>
        <time>2026-09-01T04:52:01Z</time>
        <speed>0.75</speed>
      </trkpt>
      <trkpt lat="39.67467450" lon="115.82350821">
        <ele>430.94</ele>
        <time>2026-09-01T04:52:25Z</time>
        <speed>0.25</speed>
      </trkpt>
      <trkpt lat="39.67472800" lon="115.82361154">
        <ele>430.71</ele>
        <time>2026-09-01T04:52:33Z</time>
        <speed>1.03</speed>
      </trkpt>
      <trkpt lat="39.67472631" lon="115.82371981">
        <ele>432.80</ele>
        <time>2026-09-01T04:52:39Z</time>
        <speed>1.14</speed>
      </trkpt>
      <trkpt lat="39.67468787" lon="115.82378853">
        <ele>435.32</ele>
        <time>2026-09-01T04:52:45Z</time>
        <speed>1.15</speed>
      </trkpt>
      <trkpt lat="39.67470631" lon="115.82389304">
        <ele>441.30</ele>
        <time>2026-09-01T04:52:53Z</time>
        <speed>0.71</speed>
      </trkpt>
      <trkpt lat="39.67474613" lon="115.82396952">
        <ele>449.31</ele>
        <time>2026-09-01T04:54:26Z</time>
        <speed>0.29</speed>
      </trkpt>
      <trkpt lat="39.67470137" lon="115.82406026">
        <ele>449.90</ele>
        <time>2026-09-01T04:54:41Z</time>
        <speed>0.07</speed>
      </trkpt>
      <trkpt lat="39.67476137" lon="115.82410469">
        <ele>451.52</ele>
        <time>2026-09-01T04:54:56Z</time>
        <speed>0.11</speed>
      </trkpt>
      <trkpt lat="39.67472151" lon="115.82417031">
        <ele>453.00</ele>
        <time>2026-09-01T04:56:16Z</time>
        <speed>0.48</speed>
      </trkpt>
      <trkpt lat="39.67469210" lon="115.82425498">
        <ele>454.36</ele>
        <time>2026-09-01T04:56:22Z</time>
        <speed>0.94</speed>
      </trkpt>
      <trkpt lat="39.67467654" lon="115.82434019">
        <ele>457.09</ele>
        <time>2026-09-01T04:56:30Z</time>
        <speed>0.51</speed>
      </trkpt>
      <trkpt lat="39.67470966" lon="115.82441602">
        <ele>460.50</ele>
        <time>2026-09-01T04:56:47Z</time>
        <speed>0.87</speed>
      </trkpt>
      <trkpt lat="39.67470943" lon="115.82451617">
        <ele>462.20</ele>
        <time>2026-09-01T04:56:55Z</time>
        <speed>0.99</speed>
      </trkpt>
      <trkpt lat="39.67472744" lon="115.82463195">
        <ele>465.99</ele>
        <time>2026-09-01T04:57:06Z</time>
        <speed>0.57</speed>
      </trkpt>
      <trkpt lat="39.67472243" lon="115.82475048">
        <ele>469.20</ele>
        <time>2026-09-01T04:57:20Z</time>
        <speed>0.84</speed>
      </trkpt>
      <trkpt lat="39.67474917" lon="115.82485822">
        <ele>471.56</ele>
        <time>2026-09-01T04:57:30Z</time>
        <speed>1.03</speed>
      </trkpt>
      <trkpt lat="39.67473575" lon="115.82496976">
        <ele>475.66</ele>
        <time>2026-09-01T04:57:47Z</time>
        <speed>0.69</speed>
      </trkpt>
      <trkpt lat="39.67473826" lon="115.82506971">
        <ele>478.03</ele>
        <time>2026-09-01T04:57:58Z</time>
        <speed>0.63</speed>
      </trkpt>
      <trkpt lat="39.67465740" lon="115.82512300">
        <ele>479.90</ele>
        <time>2026-09-01T04:58:15Z</time>
        <speed>1.06</speed>
      </trkpt>
      <trkpt lat="39.67475597" lon="115.82508965">
        <ele>480.85</ele>
        <time>2026-09-01T04:58:25Z</time>
        <speed>0.53</speed>
      </trkpt>
      <trkpt lat="39.67471526" lon="115.82515747">
        <ele>481.10</ele>
        <time>2026-09-01T04:58:44Z</time>
        <speed>0.23</speed>
      </trkpt>
      <trkpt lat="39.67475090" lon="115.82524295">
        <ele>482.38</ele>
        <time>2026-09-01T04:58:54Z</time>
        <speed>0.67</speed>
      </trkpt>
      <trkpt lat="39.67476770" lon="115.82534977">
        <ele>484.49</ele>
        <time>2026-09-01T04:59:09Z</time>
        <speed>0.92</speed>
      </trkpt>
      <trkpt lat="39.67476282" lon="115.82545831">
        <ele>487.44</ele>
        <time>2026-09-01T04:59:32Z</time>
        <speed>0.70</speed>
      </trkpt>
      <trkpt lat="39.67474247" lon="115.82555096">
        <ele>488.11</ele>
        <time>2026-09-01T04:59:43Z</time>
        <speed>0.19</speed>
      </trkpt>
      <trkpt lat="39.67471444" lon="115.82563132">
        <ele>489.56</ele>
        <time>2026-09-01T04:59:54Z</time>
        <speed>0.68</speed>
      </trkpt>
      <trkpt lat="39.67475295" lon="115.82570146">
        <ele>490.87</ele>
        <time>2026-09-01T05:00:05Z</time>
        <speed>0.78</speed>
      </trkpt>
      <trkpt lat="39.67479108" lon="115.82576916">
        <ele>494.16</ele>
        <time>2026-09-01T05:00:32Z</time>
        <speed>0.16</speed>
      </trkpt>
      <trkpt lat="39.67487059" lon="115.82585331">
        <ele>496.42</ele>
        <time>2026-09-01T05:00:58Z</time>
      </trkpt>
      <trkpt lat="39.67485530" lon="115.82576775">
        <ele>497.70</ele>
        <time>2026-09-01T05:02:40Z</time>
        <speed>0.19</speed>
      </trkpt>
      <trkpt lat="39.67489514" lon="115.82568793">
        <ele>497.08</ele>
        <time>2026-09-01T05:02:44Z</time>
      </trkpt>
      <trkpt lat="39.67482870" lon="115.82564694">
        <ele>495.39</ele>
        <time>2026-09-01T05:02:57Z</time>
        <speed>0.79</speed>
      </trkpt>
      <trkpt lat="39.67475186" lon="115.82560503">
        <ele>492.79</ele>
        <time>2026-09-01T05:03:10Z</time>
        <speed>0.54</speed>
      </trkpt>
      <trkpt lat="39.67469415" lon="115.82554412">
        <ele>489.38</ele>
        <time>2026-09-01T05:03:42Z</time>
        <speed>0.60</speed>
      </trkpt>
      <trkpt lat="39.67463531" lon="115.82549588">
        <ele>488.40</ele>
        <time>2026-09-01T05:03:56Z</time>
        <speed>0.24</speed>
      </trkpt>
      <trkpt lat="39.67458626" lon="115.82539788">
        <ele>486.75</ele>
        <time>2026-09-01T05:04:10Z</time>
        <speed>0.62</speed>
      </trkpt>
      <trkpt lat="39.67453446" lon="115.82532442">
        <ele>486.90</ele>
        <time>2026-09-01T05:04:16Z</time>
        <speed>0.76</speed>
      </trkpt>
      <trkpt lat="39.67447263" lon="115.82528532">
        <ele>486.76</ele>
        <time>2026-09-01T05:04:23Z</time>
        <speed>0.61</speed>
      </trkpt>
      <trkpt lat="39.67441499" lon="115.82523613">
        <ele>485.02</ele>
        <time>2026-09-01T05:04:40Z</time>
        <speed>0.27</speed>
      </trkpt>
      <trkpt lat="39.67435525" lon="115.82518870">
        <ele>485.05</ele>
        <time>2026-09-01T05:04:54Z</time>
        <speed>0.50</speed>
      </trkpt>
      <trkpt lat="39.67427260" lon="115.82514980">
        <ele>484.33</ele>
        <time>2026-09-01T05:05:23Z</time>
        <speed>0.14</speed>
      </trkpt>
      <trkpt lat="39.67419477" lon="115.82512020">
        <ele>484.89</ele>
        <time>2026-09-01T05:05:38Z</time>
        <speed>0.60</speed>
      </trkpt>
      <trkpt lat="39.67412185" lon="115.82508485">
        <ele>485.54</ele>
        <time>2026-09-01T05:05:53Z</time>
        <speed>0.46</speed>
      </trkpt>
      <trkpt lat="39.67405931" lon="115.82504491">
        <ele>487.63</ele>
        <time>2026-09-01T05:06:23Z</time>
        <speed>0.55</speed>
      </trkpt>
      <trkpt lat="39.67408140" lon="115.82512843">
        <ele>488.17</ele>
        <time>2026-09-01T05:06:44Z</time>
        <speed>0.02</speed>
      </trkpt>
      <trkpt lat="39.67414018" lon="115.82507479">
        <ele>486.83</ele>
        <time>2026-09-01T05:07:31Z</time>
      </trkpt>
      <trkpt lat="39.67405033" lon="115.82508534">
        <ele>487.53</ele>
        <time>2026-09-01T05:07:40Z</time>
        <speed>1.78</speed>
      </trkpt>
      <trkpt lat="39.67400323" lon="115.82502542">
        <ele>489.47</ele>
        <time>2026-09-01T05:07:49Z</time>
        <speed>0.86</speed>
      </trkpt>
      <trkpt lat="39.67393248" lon="115.82505669">
        <ele>492.64</ele>
        <time>2026-09-01T05:08:03Z</time>
        <speed>0.57</speed>
      </trkpt>
      <trkpt lat="39.67383502" lon="115.82502917">
        <ele>498.63</ele>
        <time>2026-09-01T05:08:20Z</time>
        <speed>0.85</speed>
      </trkpt>
      <trkpt lat="39.67377669" lon="115.82498334">
        <ele>501.55</ele>
        <time>2026-09-01T05:08:46Z</time>
        <speed>0.51</speed>
      </trkpt>
      <trkpt lat="39.67372411" lon="115.82505176">
        <ele>502.93</ele>
        <time>2026-09-01T05:09:09Z</time>
        <speed>0.37</speed>
      </trkpt>
      <trkpt lat="39.67366319" lon="115.82509927">
        <ele>506.58</ele>
        <time>2026-09-01T05:09:28Z</time>
        <speed>0.29</speed>
      </trkpt>
      <trkpt lat="39.67364714" lon="115.82520003">
        <ele>507.41</ele>
        <time>2026-09-01T05:09:51Z</time>
        <speed>0.26</speed>
      </trkpt>
      <trkpt lat="39.67358510" lon="115.82524308">
        <ele>510.71</ele>
        <time>2026-09-01T05:11:02Z</time>
        <speed>0.47</speed>
      </trkpt>
      <trkpt lat="39.67359134" lon="115.82534220">
        <ele>509.78</ele>
        <time>2026-09-01T05:11:16Z</time>
        <speed>0.23</speed>
      </trkpt>
      <trkpt lat="39.67366920" lon="115.82531256">
        <ele>509.28</ele>
        <time>2026-09-01T05:13:02Z</time>
        <speed>0.01</speed>
      </trkpt>
      <trkpt lat="39.67357004" lon="115.82532504">
        <ele>513.36</ele>
        <time>2026-09-01T05:14:43Z</time>
        <speed>0.08</speed>
      </trkpt>
      <trkpt lat="39.67364197" lon="115.82526612">
        <ele>507.10</ele>
        <time>2026-09-01T05:22:50Z</time>
        <speed>0.21</speed>
      </trkpt>
      <trkpt lat="39.67363570" lon="115.82516024">
        <ele>507.02</ele>
        <time>2026-09-01T05:23:04Z</time>
        <speed>0.82</speed>
      </trkpt>
      <trkpt lat="39.67370695" lon="115.82510526">
        <ele>505.30</ele>
        <time>2026-09-01T05:23:27Z</time>
        <speed>0.04</speed>
      </trkpt>
      <trkpt lat="39.67373637" lon="115.82500988">
        <ele>502.51</ele>
        <time>2026-09-01T05:23:53Z</time>
        <speed>0.60</speed>
      </trkpt>
      <trkpt lat="39.67381678" lon="115.82504976">
        <ele>500.15</ele>
        <time>2026-09-01T05:24:17Z</time>
        <speed>0.23</speed>
      </trkpt>
      <trkpt lat="39.67378844" lon="115.82512746">
        <ele>501.03</ele>
        <time>2026-09-01T05:28:29Z</time>
        <speed>0.34</speed>
      </trkpt>
      <trkpt lat="39.67384260" lon="115.82508121">
        <ele>501.52</ele>
        <time>2026-09-01T05:30:20Z</time>
        <speed>0.13</speed>
      </trkpt>
      <trkpt lat="39.67385103" lon="115.82517505">
        <ele>500.58</ele>
        <time>2026-09-01T05:31:27Z</time>
      </trkpt>
      <trkpt lat="39.67381624" lon="115.82510074">
        <ele>498.44</ele>
        <time>2026-09-01T05:32:23Z</time>
        <speed>0.28</speed>
      </trkpt>
      <trkpt lat="39.67388324" lon="115.82504780">
        <ele>499.09</ele>
        <time>2026-09-01T05:33:10Z</time>
      </trkpt>
      <trkpt lat="39.67378227" lon="115.82505721">
        <ele>499.51</ele>
        <time>2026-09-01T05:34:47Z</time>
        <speed>0.08</speed>
      </trkpt>
      <trkpt lat="39.67383872" lon="115.82511213">
        <ele>502.93</ele>
        <time>2026-09-01T05:35:46Z</time>
        <speed>0.11</speed>
      </trkpt>
      <trkpt lat="39.67378730" lon="115.82506247">
        <ele>502.40</ele>
        <time>2026-09-01T05:36:25Z</time>
      </trkpt>
      <trkpt lat="39.67383093" lon="115.82512518">
        <ele>499.06</ele>
        <time>2026-09-01T05:38:10Z</time>
      </trkpt>
      <trkpt lat="39.67384915" lon="115.82503020">
        <ele>499.10</ele>
        <time>2026-09-01T05:41:25Z</time>
      </trkpt>
      <trkpt lat="39.67388270" lon="115.82512331">
        <ele>498.75</ele>
        <time>2026-09-01T05:42:45Z</time>
        <speed>0.08</speed>
      </trkpt>
      <trkpt lat="39.67384676" lon="115.82504419">
        <ele>501.64</ele>
        <time>2026-09-01T05:44:33Z</time>
      </trkpt>
      <trkpt lat="39.67380228" lon="115.82511812">
        <ele>499.90</ele>
        <time>2026-09-01T05:46:13Z</time>
      </trkpt>
      <trkpt lat="39.67382105" lon="115.82501989">
        <ele>503.09</ele>
        <time>2026-09-01T05:46:37Z</time>
      </trkpt>
      <trkpt lat="39.67387255" lon="115.82508001">
        <ele>498.03</ele>
        <time>2026-09-01T05:48:15Z</time>
      </trkpt>
      <trkpt lat="39.67381562" lon="115.82512571">
        <ele>499.93</ele>
        <time>2026-09-01T05:50:55Z</time>
      </trkpt>
      <trkpt lat="39.67379108" lon="115.82499974">
        <ele>499.38</ele>
        <time>2026-09-01T05:54:30Z</time>
        <speed>0.04</speed>
      </trkpt>
      <trkpt lat="39.67384434" lon="115.82505074">
        <ele>497.72</ele>
        <time>2026-09-01T05:54:36Z</time>
        <speed>0.04</speed>
      </trkpt>
      <trkpt lat="39.67377011" lon="115.82510899">
        <ele>493.71</ele>
        <time>2026-09-01T05:55:53Z</time>
        <speed>0.07</speed>
      </trkpt>
      <trkpt lat="39.67385557" lon="115.82506367">
        <ele>500.72</ele>
        <time>2026-09-01T05:57:18Z</time>
      </trkpt>
      <trkpt lat="39.67438132" lon="115.82525200">
        <ele>483.04</ele>
        <time>2026-09-01T06:02:00Z</time>
        <speed>0.34</speed>
      </trkpt>
      <trkpt lat="39.67467734" lon="115.82566470">
        <ele>487.21</ele>
        <time>2026-09-01T06:03:06Z</time>
        <speed>1.44</speed>
      </trkpt>
      <trkpt lat="39.67477624" lon="115.82506230">
        <ele>477.91</ele>
        <time>2026-09-01T06:05:44Z</time>
        <speed>0.31</speed>
      </trkpt>
      <trkpt lat="39.67484793" lon="115.82435654">
        <ele>461.89</ele>
        <time>2026-09-01T06:07:20Z</time>
        <speed>1.63</speed>
      </trkpt>
      <trkpt lat="39.67472780" lon="115.82376794">
        <ele>442.23</ele>
        <time>2026-09-01T06:08:46Z</time>
        <speed>0.07</speed>
      </trkpt>
      <trkpt lat="39.67451003" lon="115.82326501">
        <ele>421.48</ele>
        <time>2026-09-01T06:09:56Z</time>
        <speed>0.86</speed>
      </trkpt>
      <trkpt lat="39.67433056" lon="115.82273199">
        <ele>404.11</ele>
        <time>2026-09-01T06:11:53Z</time>
        <speed>0.83</speed>
      </trkpt>
      <trkpt lat="39.67379751" lon="115.82255428">
        <ele>406.62</ele>
        <time>2026-09-01T06:13:03Z</time>
        <speed>1.13</speed>
      </trkpt>
      <trkpt lat="39.67327320" lon="115.82233609">
        <ele>403.66</ele>
        <time>2026-09-01T06:14:04Z</time>
        <speed>0.54</speed>
      </trkpt>
      <trkpt lat="39.67296163" lon="115.82191353">
        <ele>400.26</ele>
        <time>2026-09-01T06:14:50Z</time>
        <speed>0.94</speed>
      </trkpt>
      <trkpt lat="39.67257264" lon="115.82158062">
        <ele>393.14</ele>
        <time>2026-09-01T06:15:38Z</time>
        <speed>1.95</speed>
      </trkpt>
      <trkpt lat="39.67190023" lon="115.82147951">
        <ele>389.15</ele>
        <time>2026-09-01T06:16:54Z</time>
        <speed>1.16</speed>
      </trkpt>
      <trkpt lat="39.67132691" lon="115.82135012">
        <ele>382.83</ele>
        <time>2026-09-01T06:18:17Z</time>
        <speed>1.73</speed>
      </trkpt>
      <trkpt lat="39.67081869" lon="115.82114445">
        <ele>350.34</ele>
        <time>2026-09-01T06:27:10Z</time>
        <speed>1.60</speed>
      </trkpt>
      <trkpt lat="39.67022125" lon="115.82103502">
        <ele>338.47</ele>
        <time>2026-09-01T06:27:50Z</time>
        <speed>1.52</speed>
      </trkpt>
      <trkpt lat="39.66974125" lon="115.82080472">
        <ele>329.86</ele>
        <time>2026-09-01T06:28:28Z</time>
      </trkpt>
      <trkpt lat="39.66919800" lon="115.82058932">
        <ele>303.59</ele>
        <time>2026-09-01T06:29:12Z</time>
        <speed>1.22</speed>
      </trkpt>
      <trkpt lat="39.66883352" lon="115.82024216">
        <ele>300.20</ele>
        <time>2026-09-01T06:31:44Z</time>
        <speed>1.16</speed>
      </trkpt>
      <trkpt lat="39.66829206" lon="115.82006246">
        <ele>257.40</ele>
        <time>2026-09-01T06:32:59Z</time>
        <speed>1.33</speed>
      </trkpt>
      <trkpt lat="39.66771660" lon="115.81990411">
        <ele>253.82</ele>
        <time>2026-09-01T06:33:53Z</time>
        <speed>0.62</speed>
      </trkpt>
      <trkpt lat="39.66734591" lon="115.81956762">
        <ele>257.11</ele>
        <time>2026-09-01T06:34:47Z</time>
        <speed>0.89</speed>
      </trkpt>
      <trkpt lat="39.66708467" lon="115.81910118">
        <ele>252.54</ele>
        <time>2026-09-01T06:35:33Z</time>
        <speed>1.09</speed>
      </trkpt>
      <trkpt lat="39.66717808" lon="115.81846739">
        <ele>242.91</ele>
        <time>2026-09-01T06:36:29Z</time>
        <speed>1.13</speed>
      </trkpt>
      <trkpt lat="39.66664742" lon="115.81825328">
        <ele>229.77</ele>
        <time>2026-09-01T06:37:40Z</time>
        <speed>1.40</speed>
      </trkpt>
      <trkpt lat="39.66605981" lon="115.81812497">
        <ele>226.17</ele>
        <time>2026-09-01T06:38:35Z</time>
        <speed>0.86</speed>
      </trkpt>
      <trkpt lat="39.66574619" lon="115.81772919">
        <ele>231.66</ele>
        <time>2026-09-01T06:40:01Z</time>
        <speed>1.28</speed>
      </trkpt>
      <trkpt lat="39.66532319" lon="115.81742157">
        <ele>227.92</ele>
        <time>2026-09-01T06:40:44Z</time>
        <speed>0.94</speed>
      </trkpt>
      <trkpt lat="39.66480161" lon="115.81723012">
        <ele>215.72</ele>
        <time>2026-09-01T06:41:31Z</time>
        <speed>1.12</speed>
      </trkpt>
      <trkpt lat="39.66440649" lon="115.81690992">
        <ele>200.04</ele>
        <time>2026-09-01T06:42:18Z</time>
        <speed>0.96</speed>
      </trkpt>
    </trkseg>
  </trk>
</gpx>
